[
  {
      "Code_Insee": 29001,
      "Nom": "Argol",
      "Code_Postal": 29560,
      "Densite_Pop": 0.0,
      "Place_Camping_Hotel": 0.0,
      "Nombre_Medecin": 1,
      "Nombre_Intervention": 0.0,
      "Latitude": 48.25,
      "Longitude": -4.3,
      "Nombre_Habitants": 1021
  },
  {
      "Code_Insee": 29002,
      "Nom": "Arzano",
      "Code_Postal": 29300,
      "Densite_Pop": 42.0,
      "Place_Camping_Hotel": 0.0,
      "Nombre_Medecin": 1,
      "Nombre_Intervention": 0.0,
      "Latitude": 47.89,
      "Longitude": -3.44,
      "Nombre_Habitants": 1419
  },
  {
      "Code_Insee": 29003,
      "Nom": "Audierne",
      "Code_Postal": 29770,
      "Densite_Pop": 201.0,
      "Place_Camping_Hotel": 96.0,
      "Nombre_Medecin": 5,
      "Nombre_Intervention": 23618.0,
      "Latitude": 48.02,
      "Longitude": -4.54,
      "Nombre_Habitants": 3697
  },
  {
      "Code_Insee": 29004,
      "Nom": "Bannalec",
      "Code_Postal": 29380,
      "Densite_Pop": 74.0,
      "Place_Camping_Hotel": 72.0,
      "Nombre_Medecin": 5,
      "Nombre_Intervention": 21546.0,
      "Latitude": 47.94,
      "Longitude": -3.7,
      "Nombre_Habitants": 5713
  },
  {
      "Code_Insee": 29005,
      "Nom": "Baye",
      "Code_Postal": 29300,
      "Densite_Pop": 182.0,
      "Place_Camping_Hotel": 84.0,
      "Nombre_Medecin": 1,
      "Nombre_Intervention": 0.0,
      "Latitude": 47.86,
      "Longitude": -3.61,
      "Nombre_Habitants": 1325
  },
  {
      "Code_Insee": 29006,
      "Nom": "B\u00e9nodet",
      "Code_Postal": 29950,
      "Densite_Pop": 360.0,
      "Place_Camping_Hotel": 1972.0,
      "Nombre_Medecin": 2,
      "Nombre_Intervention": 0.0,
      "Latitude": 47.88,
      "Longitude": -4.08,
      "Nombre_Habitants": 3790
  },
  {
      "Code_Insee": 29007,
      "Nom": "Berrien",
      "Code_Postal": 29690,
      "Densite_Pop": 16.0,
      "Place_Camping_Hotel": 0.0,
      "Nombre_Medecin": 0,
      "Nombre_Intervention": 0.0,
      "Latitude": 48.4,
      "Longitude": -3.77,
      "Nombre_Habitants": 898
  },
  {
      "Code_Insee": 29008,
      "Nom": "Beuzec-Cap-Sizun",
      "Code_Postal": 29790,
      "Densite_Pop": 29.0,
      "Place_Camping_Hotel": 89.0,
      "Nombre_Medecin": 0,
      "Nombre_Intervention": 0.0,
      "Latitude": 48.07,
      "Longitude": -4.51,
      "Nombre_Habitants": 1012
  },
  {
      "Code_Insee": 29010,
      "Nom": "Bodilis",
      "Code_Postal": 29400,
      "Densite_Pop": 84.0,
      "Place_Camping_Hotel": 0.0,
      "Nombre_Medecin": 0,
      "Nombre_Intervention": 0.0,
      "Latitude": 48.52,
      "Longitude": -4.12,
      "Nombre_Habitants": 1677
  },
  {
      "Code_Insee": 29011,
      "Nom": "Bohars",
      "Code_Postal": 29820,
      "Densite_Pop": 497.0,
      "Place_Camping_Hotel": 0.0,
      "Nombre_Medecin": 5,
      "Nombre_Intervention": 18360.0,
      "Latitude": 48.43,
      "Longitude": -4.52,
      "Nombre_Habitants": 3615
  },
  {
      "Code_Insee": 29012,
      "Nom": "Bolazec",
      "Code_Postal": 29640,
      "Densite_Pop": 10.0,
      "Place_Camping_Hotel": 0.0,
      "Nombre_Medecin": 0,
      "Nombre_Intervention": 0.0,
      "Latitude": 48.44,
      "Longitude": -3.6,
      "Nombre_Habitants": 175
  },
  {
      "Code_Insee": 29013,
      "Nom": "Botmeur",
      "Code_Postal": 29690,
      "Densite_Pop": 17.0,
      "Place_Camping_Hotel": 20.0,
      "Nombre_Medecin": 0,
      "Nombre_Intervention": 0.0,
      "Latitude": 48.38,
      "Longitude": -3.92,
      "Nombre_Habitants": 225
  },
  {
      "Code_Insee": 29014,
      "Nom": "Botsorhel",
      "Code_Postal": 29650,
      "Densite_Pop": 17.0,
      "Place_Camping_Hotel": 0.0,
      "Nombre_Medecin": 0,
      "Nombre_Intervention": 0.0,
      "Latitude": 48.51,
      "Longitude": -3.63,
      "Nombre_Habitants": 429
  },
  {
      "Code_Insee": 29015,
      "Nom": "Bourg-Blanc",
      "Code_Postal": 29860,
      "Densite_Pop": 125.0,
      "Place_Camping_Hotel": 0.0,
      "Nombre_Medecin": 3,
      "Nombre_Intervention": 0.0,
      "Latitude": 48.5,
      "Longitude": -4.5,
      "Nombre_Habitants": 3542
  },
  {
      "Code_Insee": 29016,
      "Nom": "Brasparts",
      "Code_Postal": 29190,
      "Densite_Pop": 22.0,
      "Place_Camping_Hotel": 12.0,
      "Nombre_Medecin": 0,
      "Nombre_Intervention": 0.0,
      "Latitude": 48.32,
      "Longitude": -3.95,
      "Nombre_Habitants": 1043
  },
  {
      "Code_Insee": 29017,
      "Nom": "Br\u00e9l\u00e8s",
      "Code_Postal": 29810,
      "Densite_Pop": 61.0,
      "Place_Camping_Hotel": 0.0,
      "Nombre_Medecin": 0,
      "Nombre_Intervention": 0.0,
      "Latitude": 48.47,
      "Longitude": -4.69,
      "Nombre_Habitants": 860
  },
  {
      "Code_Insee": 29018,
      "Nom": "Brennilis",
      "Code_Postal": 29690,
      "Densite_Pop": 24.0,
      "Place_Camping_Hotel": 41.0,
      "Nombre_Medecin": 0,
      "Nombre_Intervention": 0.0,
      "Latitude": 48.36,
      "Longitude": -3.85,
      "Nombre_Habitants": 440
  },
  {
      "Code_Insee": 29019,
      "Nom": "Brest",
      "Code_Postal": 29200,
      "Densite_Pop": 2820.0,
      "Place_Camping_Hotel": 1591.0,
      "Nombre_Medecin": 154,
      "Nombre_Intervention": 658652.0,
      "Latitude": 48.4,
      "Longitude": -4.5,
      "Nombre_Habitants": 139619
  },
  {
      "Code_Insee": 29020,
      "Nom": "Briec",
      "Code_Postal": 29510,
      "Densite_Pop": 86.0,
      "Place_Camping_Hotel": 0.0,
      "Nombre_Medecin": 6,
      "Nombre_Intervention": 24763.0,
      "Latitude": 48.09,
      "Longitude": -4.02,
      "Nombre_Habitants": 5808
  },
  {
      "Code_Insee": 29021,
      "Nom": "Ploun\u00e9our-Brignogan-plages",
      "Code_Postal": 29890,
      "Densite_Pop": 136.0,
      "Place_Camping_Hotel": 412.0,
      "Nombre_Medecin": 5,
      "Nombre_Intervention": 23318.0,
      "Latitude": 48.67,
      "Longitude": -4.33,
      "Nombre_Habitants": 1940
  },
  {
      "Code_Insee": 29022,
      "Nom": "Camaret-sur-Mer",
      "Code_Postal": 29570,
      "Densite_Pop": 210.0,
      "Place_Camping_Hotel": 476.0,
      "Nombre_Medecin": 3,
      "Nombre_Intervention": 0.0,
      "Latitude": 48.27,
      "Longitude": -4.59,
      "Nombre_Habitants": 2447
  },
  {
      "Code_Insee": 29023,
      "Nom": "Carantec",
      "Code_Postal": 29660,
      "Densite_Pop": 359.0,
      "Place_Camping_Hotel": 461.0,
      "Nombre_Medecin": 2,
      "Nombre_Intervention": 0.0,
      "Latitude": 48.66,
      "Longitude": -3.91,
      "Nombre_Habitants": 3236
  },
  {
      "Code_Insee": 29024,
      "Nom": "Carhaix-Plouguer",
      "Code_Postal": 29270,
      "Densite_Pop": 281.0,
      "Place_Camping_Hotel": 109.0,
      "Nombre_Medecin": 8,
      "Nombre_Intervention": 28764.0,
      "Latitude": 48.27,
      "Longitude": -3.57,
      "Nombre_Habitants": 7240
  },
  {
      "Code_Insee": 29025,
      "Nom": "Cast",
      "Code_Postal": 29150,
      "Densite_Pop": 41.0,
      "Place_Camping_Hotel": 0.0,
      "Nombre_Medecin": 2,
      "Nombre_Intervention": 0.0,
      "Latitude": 48.15,
      "Longitude": -4.12,
      "Nombre_Habitants": 1544
  },
  {
      "Code_Insee": 29026,
      "Nom": "Ch\u00e2teaulin",
      "Code_Postal": 29150,
      "Densite_Pop": 247.0,
      "Place_Camping_Hotel": 94.0,
      "Nombre_Medecin": 6,
      "Nombre_Intervention": 31857.0,
      "Latitude": 48.2,
      "Longitude": -4.07,
      "Nombre_Habitants": 5144
  },
  {
      "Code_Insee": 29027,
      "Nom": "Ch\u00e2teauneuf-du-Faou",
      "Code_Postal": 29520,
      "Densite_Pop": 86.0,
      "Place_Camping_Hotel": 0.0,
      "Nombre_Medecin": 8,
      "Nombre_Intervention": 29542.0,
      "Latitude": 48.19,
      "Longitude": -3.82,
      "Nombre_Habitants": 3648
  },
  {
      "Code_Insee": 29028,
      "Nom": "Cl\u00e9den-Cap-Sizun",
      "Code_Postal": 29770,
      "Densite_Pop": 48.0,
      "Place_Camping_Hotel": 72.0,
      "Nombre_Medecin": 1,
      "Nombre_Intervention": 0.0,
      "Latitude": 48.05,
      "Longitude": -4.66,
      "Nombre_Habitants": 910
  },
  {
      "Code_Insee": 29029,
      "Nom": "Cl\u00e9den-Poher",
      "Code_Postal": 29270,
      "Densite_Pop": 38.0,
      "Place_Camping_Hotel": 45.0,
      "Nombre_Medecin": 1,
      "Nombre_Intervention": 0.0,
      "Latitude": 48.24,
      "Longitude": -3.66,
      "Nombre_Habitants": 1129
  },
  {
      "Code_Insee": 29030,
      "Nom": "Cl\u00e9der",
      "Code_Postal": 29233,
      "Densite_Pop": 96.0,
      "Place_Camping_Hotel": 410.0,
      "Nombre_Medecin": 3,
      "Nombre_Intervention": 0.0,
      "Latitude": 48.66,
      "Longitude": -4.12,
      "Nombre_Habitants": 3594
  },
  {
      "Code_Insee": 29031,
      "Nom": "Clohars-Carno\u00ebt",
      "Code_Postal": 29360,
      "Densite_Pop": 134.0,
      "Place_Camping_Hotel": 1274.0,
      "Nombre_Medecin": 4,
      "Nombre_Intervention": 18830.0,
      "Latitude": 47.79,
      "Longitude": -3.57,
      "Nombre_Habitants": 4651
  },
  {
      "Code_Insee": 29031,
      "Nom": "Clohars-Carno\u00ebt",
      "Code_Postal": 29360,
      "Densite_Pop": 134.0,
      "Place_Camping_Hotel": 1274.0,
      "Nombre_Medecin": 4,
      "Nombre_Intervention": 18830.0,
      "Latitude": 47.79,
      "Longitude": -3.57,
      "Nombre_Habitants": 4651
  },
  {
      "Code_Insee": 29032,
      "Nom": "Clohars-Fouesnant",
      "Code_Postal": 29950,
      "Densite_Pop": 163.0,
      "Place_Camping_Hotel": 358.0,
      "Nombre_Medecin": 0,
      "Nombre_Intervention": 0.0,
      "Latitude": 47.9,
      "Longitude": -4.08,
      "Nombre_Habitants": 2124
  },
  {
      "Code_Insee": 29033,
      "Nom": "Le Clo\u00eetre-Pleyben",
      "Code_Postal": 29190,
      "Densite_Pop": 25.0,
      "Place_Camping_Hotel": 0.0,
      "Nombre_Medecin": 0,
      "Nombre_Intervention": 0.0,
      "Latitude": 48.26,
      "Longitude": -3.9,
      "Nombre_Habitants": 513
  },
  {
      "Code_Insee": 29034,
      "Nom": "Le Clo\u00eetre-Saint-Th\u00e9gonnec",
      "Code_Postal": 29410,
      "Densite_Pop": 23.0,
      "Place_Camping_Hotel": 15.0,
      "Nombre_Medecin": 0,
      "Nombre_Intervention": 0.0,
      "Latitude": 48.46,
      "Longitude": -3.79,
      "Nombre_Habitants": 649
  },
  {
      "Code_Insee": 29035,
      "Nom": "Coat-M\u00e9al",
      "Code_Postal": 29870,
      "Densite_Pop": 105.0,
      "Place_Camping_Hotel": 0.0,
      "Nombre_Medecin": 0,
      "Nombre_Intervention": 0.0,
      "Latitude": 48.51,
      "Longitude": -4.54,
      "Nombre_Habitants": 1131
  },
  {
      "Code_Insee": 29036,
      "Nom": "Collorec",
      "Code_Postal": 29530,
      "Densite_Pop": 21.0,
      "Place_Camping_Hotel": 20.0,
      "Nombre_Medecin": 0,
      "Nombre_Intervention": 0.0,
      "Latitude": 48.29,
      "Longitude": -3.77,
      "Nombre_Habitants": 597
  },
  {
      "Code_Insee": 29037,
      "Nom": "Combrit",
      "Code_Postal": 29120,
      "Densite_Pop": 176.0,
      "Place_Camping_Hotel": 247.0,
      "Nombre_Medecin": 3,
      "Nombre_Intervention": 0.0,
      "Latitude": 47.89,
      "Longitude": -4.16,
      "Nombre_Habitants": 4247
  },
  {
      "Code_Insee": 29038,
      "Nom": "Commana",
      "Code_Postal": 29450,
      "Densite_Pop": 25.0,
      "Place_Camping_Hotel": 50.0,
      "Nombre_Medecin": 0,
      "Nombre_Intervention": 0.0,
      "Latitude": 48.41,
      "Longitude": -3.97,
      "Nombre_Habitants": 995
  },
  {
      "Code_Insee": 29039,
      "Nom": "Concarneau",
      "Code_Postal": 29900,
      "Densite_Pop": 502.0,
      "Place_Camping_Hotel": 1079.0,
      "Nombre_Medecin": 20,
      "Nombre_Intervention": 92933.0,
      "Latitude": 47.9,
      "Longitude": -3.91,
      "Nombre_Habitants": 20607
  },
  {
      "Code_Insee": 29040,
      "Nom": "Le Conquet",
      "Code_Postal": 29217,
      "Densite_Pop": 331.0,
      "Place_Camping_Hotel": 328.0,
      "Nombre_Medecin": 4,
      "Nombre_Intervention": 14908.0,
      "Latitude": 48.36,
      "Longitude": -4.76,
      "Nombre_Habitants": 2799
  },
  {
      "Code_Insee": 29041,
      "Nom": "Coray",
      "Code_Postal": 29370,
      "Densite_Pop": 60.0,
      "Place_Camping_Hotel": 0.0,
      "Nombre_Medecin": 3,
      "Nombre_Intervention": 0.0,
      "Latitude": 48.07,
      "Longitude": -3.86,
      "Nombre_Habitants": 1882
  },
  {
      "Code_Insee": 29042,
      "Nom": "Crozon",
      "Code_Postal": 29160,
      "Densite_Pop": 91.0,
      "Place_Camping_Hotel": 1008.0,
      "Nombre_Medecin": 8,
      "Nombre_Intervention": 36532.0,
      "Latitude": 48.24,
      "Longitude": -4.49,
      "Nombre_Habitants": 7321
  },
  {
      "Code_Insee": 29042,
      "Nom": "Crozon",
      "Code_Postal": 29160,
      "Densite_Pop": 91.0,
      "Place_Camping_Hotel": 1008.0,
      "Nombre_Medecin": 8,
      "Nombre_Intervention": 36532.0,
      "Latitude": 48.24,
      "Longitude": -4.49,
      "Nombre_Habitants": 7321
  },
  {
      "Code_Insee": 29042,
      "Nom": "Crozon",
      "Code_Postal": 29160,
      "Densite_Pop": 91.0,
      "Place_Camping_Hotel": 1008.0,
      "Nombre_Medecin": 8,
      "Nombre_Intervention": 36532.0,
      "Latitude": 48.24,
      "Longitude": -4.49,
      "Nombre_Habitants": 7321
  },
  {
      "Code_Insee": 29043,
      "Nom": "Daoulas",
      "Code_Postal": 29460,
      "Densite_Pop": 339.0,
      "Place_Camping_Hotel": 0.0,
      "Nombre_Medecin": 3,
      "Nombre_Intervention": 0.0,
      "Latitude": 48.36,
      "Longitude": -4.26,
      "Nombre_Habitants": 1836
  },
  {
      "Code_Insee": 29044,
      "Nom": "Din\u00e9ault",
      "Code_Postal": 29150,
      "Densite_Pop": 41.0,
      "Place_Camping_Hotel": 0.0,
      "Nombre_Medecin": 0,
      "Nombre_Intervention": 0.0,
      "Latitude": 48.22,
      "Longitude": -4.17,
      "Nombre_Habitants": 1863
  },
  {
      "Code_Insee": 29045,
      "Nom": "Dirinon",
      "Code_Postal": 29460,
      "Densite_Pop": 67.0,
      "Place_Camping_Hotel": 0.0,
      "Nombre_Medecin": 3,
      "Nombre_Intervention": 0.0,
      "Latitude": 48.4,
      "Longitude": -4.27,
      "Nombre_Habitants": 2203
  },
  {
      "Code_Insee": 29046,
      "Nom": "Douarnenez",
      "Code_Postal": 29100,
      "Densite_Pop": 568.0,
      "Place_Camping_Hotel": 829.0,
      "Nombre_Medecin": 11,
      "Nombre_Intervention": 52827.0,
      "Latitude": 48.08,
      "Longitude": -4.33,
      "Nombre_Habitants": 14163
  },
  {
      "Code_Insee": 29046,
      "Nom": "Douarnenez",
      "Code_Postal": 29100,
      "Densite_Pop": 568.0,
      "Place_Camping_Hotel": 829.0,
      "Nombre_Medecin": 11,
      "Nombre_Intervention": 52827.0,
      "Latitude": 48.08,
      "Longitude": -4.33,
      "Nombre_Habitants": 14163
  },
  {
      "Code_Insee": 29047,
      "Nom": "Le Drennec",
      "Code_Postal": 29860,
      "Densite_Pop": 203.0,
      "Place_Camping_Hotel": 0.0,
      "Nombre_Medecin": 2,
      "Nombre_Intervention": 0.0,
      "Latitude": 48.53,
      "Longitude": -4.38,
      "Nombre_Habitants": 1926
  },
  {
      "Code_Insee": 29048,
      "Nom": "Edern",
      "Code_Postal": 29510,
      "Densite_Pop": 55.0,
      "Place_Camping_Hotel": 0.0,
      "Nombre_Medecin": 1,
      "Nombre_Intervention": 0.0,
      "Latitude": 48.12,
      "Longitude": -3.96,
      "Nombre_Habitants": 2217
  },
  {
      "Code_Insee": 29049,
      "Nom": "Elliant",
      "Code_Postal": 29370,
      "Densite_Pop": 48.0,
      "Place_Camping_Hotel": 0.0,
      "Nombre_Medecin": 3,
      "Nombre_Intervention": 0.0,
      "Latitude": 48.01,
      "Longitude": -3.9,
      "Nombre_Habitants": 3343
  },
  {
      "Code_Insee": 29051,
      "Nom": "Ergu\u00e9-Gab\u00e9ric",
      "Code_Postal": 29500,
      "Densite_Pop": 215.0,
      "Place_Camping_Hotel": 65.0,
      "Nombre_Medecin": 12,
      "Nombre_Intervention": 52470.0,
      "Latitude": 48.01,
      "Longitude": -4.01,
      "Nombre_Habitants": 8553
  },
  {
      "Code_Insee": 29053,
      "Nom": "Le Faou",
      "Code_Postal": 29590,
      "Densite_Pop": 155.0,
      "Place_Camping_Hotel": 56.0,
      "Nombre_Medecin": 4,
      "Nombre_Intervention": 15559.0,
      "Latitude": 48.31,
      "Longitude": -4.14,
      "Nombre_Habitants": 1832
  },
  {
      "Code_Insee": 29054,
      "Nom": "La Feuill\u00e9e",
      "Code_Postal": 29690,
      "Densite_Pop": 21.0,
      "Place_Camping_Hotel": 0.0,
      "Nombre_Medecin": 0,
      "Nombre_Intervention": 0.0,
      "Latitude": 48.39,
      "Longitude": -3.85,
      "Nombre_Habitants": 670
  },
  {
      "Code_Insee": 29055,
      "Nom": "Le Folgo\u00ebt",
      "Code_Postal": 29260,
      "Densite_Pop": 334.0,
      "Place_Camping_Hotel": 0.0,
      "Nombre_Medecin": 5,
      "Nombre_Intervention": 27785.0,
      "Latitude": 48.57,
      "Longitude": -4.35,
      "Nombre_Habitants": 3264
  },
  {
      "Code_Insee": 29056,
      "Nom": "La Forest-Landerneau",
      "Code_Postal": 29800,
      "Densite_Pop": 215.0,
      "Place_Camping_Hotel": 0.0,
      "Nombre_Medecin": 3,
      "Nombre_Intervention": 0.0,
      "Latitude": 48.43,
      "Longitude": -4.31,
      "Nombre_Habitants": 1980
  },
  {
      "Code_Insee": 29057,
      "Nom": "La For\u00eat-Fouesnant",
      "Code_Postal": 29940,
      "Densite_Pop": 187.0,
      "Place_Camping_Hotel": 1369.0,
      "Nombre_Medecin": 6,
      "Nombre_Intervention": 24047.0,
      "Latitude": 47.92,
      "Longitude": -3.97,
      "Nombre_Habitants": 3463
  },
  {
      "Code_Insee": 29058,
      "Nom": "Fouesnant",
      "Code_Postal": 29170,
      "Densite_Pop": 308.0,
      "Place_Camping_Hotel": 2489.0,
      "Nombre_Medecin": 13,
      "Nombre_Intervention": 61724.0,
      "Latitude": 47.88,
      "Longitude": -4.02,
      "Nombre_Habitants": 10098
  },
  {
      "Code_Insee": 29058,
      "Nom": "Fouesnant",
      "Code_Postal": 29170,
      "Densite_Pop": 308.0,
      "Place_Camping_Hotel": 2489.0,
      "Nombre_Medecin": 13,
      "Nombre_Intervention": 61724.0,
      "Latitude": 47.88,
      "Longitude": -4.02,
      "Nombre_Habitants": 10098
  },
  {
      "Code_Insee": 29059,
      "Nom": "Garlan",
      "Code_Postal": 29610,
      "Densite_Pop": 79.0,
      "Place_Camping_Hotel": 0.0,
      "Nombre_Medecin": 0,
      "Nombre_Intervention": 0.0,
      "Latitude": 48.6,
      "Longitude": -3.77,
      "Nombre_Habitants": 1051
  },
  {
      "Code_Insee": 29060,
      "Nom": "Gouesnach",
      "Code_Postal": 29950,
      "Densite_Pop": 162.0,
      "Place_Camping_Hotel": 60.0,
      "Nombre_Medecin": 4,
      "Nombre_Intervention": 16399.0,
      "Latitude": 47.92,
      "Longitude": -4.11,
      "Nombre_Habitants": 2772
  },
  {
      "Code_Insee": 29061,
      "Nom": "Gouesnou",
      "Code_Postal": 29850,
      "Densite_Pop": 525.0,
      "Place_Camping_Hotel": 222.0,
      "Nombre_Medecin": 11,
      "Nombre_Intervention": 40419.0,
      "Latitude": 48.45,
      "Longitude": -4.46,
      "Nombre_Habitants": 6347
  },
  {
      "Code_Insee": 29062,
      "Nom": "Gou\u00e9zec",
      "Code_Postal": 29190,
      "Densite_Pop": 36.0,
      "Place_Camping_Hotel": 0.0,
      "Nombre_Medecin": 0,
      "Nombre_Intervention": 0.0,
      "Latitude": 48.17,
      "Longitude": -3.97,
      "Nombre_Habitants": 1109
  },
  {
      "Code_Insee": 29063,
      "Nom": "Goulien",
      "Code_Postal": 29770,
      "Densite_Pop": 34.0,
      "Place_Camping_Hotel": 25.0,
      "Nombre_Medecin": 0,
      "Nombre_Intervention": 0.0,
      "Latitude": 48.06,
      "Longitude": -4.59,
      "Nombre_Habitants": 434
  },
  {
      "Code_Insee": 29064,
      "Nom": "Goulven",
      "Code_Postal": 29890,
      "Densite_Pop": 70.0,
      "Place_Camping_Hotel": 19.0,
      "Nombre_Medecin": 1,
      "Nombre_Intervention": 0.0,
      "Latitude": 48.62,
      "Longitude": -4.3,
      "Nombre_Habitants": 445
  },
  {
      "Code_Insee": 29065,
      "Nom": "Gourlizon",
      "Code_Postal": 29710,
      "Densite_Pop": 95.0,
      "Place_Camping_Hotel": 0.0,
      "Nombre_Medecin": 0,
      "Nombre_Intervention": 0.0,
      "Latitude": 48.03,
      "Longitude": -4.27,
      "Nombre_Habitants": 937
  },
  {
      "Code_Insee": 29066,
      "Nom": "Guengat",
      "Code_Postal": 29180,
      "Densite_Pop": 80.0,
      "Place_Camping_Hotel": 0.0,
      "Nombre_Medecin": 1,
      "Nombre_Intervention": 0.0,
      "Latitude": 48.04,
      "Longitude": -4.2,
      "Nombre_Habitants": 1825
  },
  {
      "Code_Insee": 29067,
      "Nom": "Guerlesquin",
      "Code_Postal": 29650,
      "Densite_Pop": 58.0,
      "Place_Camping_Hotel": 7.0,
      "Nombre_Medecin": 4,
      "Nombre_Intervention": 18760.0,
      "Latitude": 48.53,
      "Longitude": -3.59,
      "Nombre_Habitants": 1273
  },
  {
      "Code_Insee": 29068,
      "Nom": "Guiclan",
      "Code_Postal": 29410,
      "Densite_Pop": 60.0,
      "Place_Camping_Hotel": 0.0,
      "Nombre_Medecin": 2,
      "Nombre_Intervention": 0.0,
      "Latitude": 48.54,
      "Longitude": -3.98,
      "Nombre_Habitants": 2547
  },
  {
      "Code_Insee": 29069,
      "Nom": "Guilers",
      "Code_Postal": 29820,
      "Densite_Pop": 430.0,
      "Place_Camping_Hotel": 0.0,
      "Nombre_Medecin": 7,
      "Nombre_Intervention": 28597.0,
      "Latitude": 48.42,
      "Longitude": -4.56,
      "Nombre_Habitants": 8170
  },
  {
      "Code_Insee": 29070,
      "Nom": "Guiler-sur-Goyen",
      "Code_Postal": 29710,
      "Densite_Pop": 46.0,
      "Place_Camping_Hotel": 0.0,
      "Nombre_Medecin": 0,
      "Nombre_Intervention": 0.0,
      "Latitude": 48.02,
      "Longitude": -4.36,
      "Nombre_Habitants": 523
  },
  {
      "Code_Insee": 29071,
      "Nom": "Guilligomarc'h",
      "Code_Postal": 29300,
      "Densite_Pop": 35.0,
      "Place_Camping_Hotel": 40.0,
      "Nombre_Medecin": 0,
      "Nombre_Intervention": 0.0,
      "Latitude": 47.94,
      "Longitude": -3.43,
      "Nombre_Habitants": 797
  },
  {
      "Code_Insee": 29072,
      "Nom": "Guilvinec",
      "Code_Postal": 29730,
      "Densite_Pop": 1090.0,
      "Place_Camping_Hotel": 0.0,
      "Nombre_Medecin": 4,
      "Nombre_Intervention": 23743.0,
      "Latitude": 47.8,
      "Longitude": -4.29,
      "Nombre_Habitants": 2682
  },
  {
      "Code_Insee": 29073,
      "Nom": "Guima\u00ebc",
      "Code_Postal": 29620,
      "Densite_Pop": 51.0,
      "Place_Camping_Hotel": 0.0,
      "Nombre_Medecin": 0,
      "Nombre_Intervention": 0.0,
      "Latitude": 48.68,
      "Longitude": -3.71,
      "Nombre_Habitants": 949
  },
  {
      "Code_Insee": 29074,
      "Nom": "Guimiliau",
      "Code_Postal": 29400,
      "Densite_Pop": 89.0,
      "Place_Camping_Hotel": 0.0,
      "Nombre_Medecin": 0,
      "Nombre_Intervention": 0.0,
      "Latitude": 48.48,
      "Longitude": -4.0,
      "Nombre_Habitants": 1004
  },
  {
      "Code_Insee": 29075,
      "Nom": "Guipavas",
      "Code_Postal": 29490,
      "Densite_Pop": 350.0,
      "Place_Camping_Hotel": 0.0,
      "Nombre_Medecin": 13,
      "Nombre_Intervention": 48193.0,
      "Latitude": 48.43,
      "Longitude": -4.4,
      "Nombre_Habitants": 15460
  },
  {
      "Code_Insee": 29076,
      "Nom": "Milizac-Guipronvel",
      "Code_Postal": 29290,
      "Densite_Pop": 112.0,
      "Place_Camping_Hotel": 102.0,
      "Nombre_Medecin": 3,
      "Nombre_Intervention": 0.0,
      "Latitude": 48.49,
      "Longitude": -4.57,
      "Nombre_Habitants": 4649
  },
  {
      "Code_Insee": 29077,
      "Nom": "Guiss\u00e9ny",
      "Code_Postal": 29880,
      "Densite_Pop": 79.0,
      "Place_Camping_Hotel": 110.0,
      "Nombre_Medecin": 3,
      "Nombre_Intervention": 0.0,
      "Latitude": 48.62,
      "Longitude": -4.41,
      "Nombre_Habitants": 1983
  },
  {
      "Code_Insee": 29078,
      "Nom": "Hanvec",
      "Code_Postal": 29460,
      "Densite_Pop": 34.0,
      "Place_Camping_Hotel": 0.0,
      "Nombre_Medecin": 2,
      "Nombre_Intervention": 0.0,
      "Latitude": 48.33,
      "Longitude": -4.14,
      "Nombre_Habitants": 2035
  },
  {
      "Code_Insee": 29079,
      "Nom": "Henvic",
      "Code_Postal": 29670,
      "Densite_Pop": 122.0,
      "Place_Camping_Hotel": 30.0,
      "Nombre_Medecin": 2,
      "Nombre_Intervention": 0.0,
      "Latitude": 48.63,
      "Longitude": -3.93,
      "Nombre_Habitants": 1210
  },
  {
      "Code_Insee": 29080,
      "Nom": "H\u00f4pital-Camfrout",
      "Code_Postal": 29460,
      "Densite_Pop": 170.0,
      "Place_Camping_Hotel": 0.0,
      "Nombre_Medecin": 2,
      "Nombre_Intervention": 0.0,
      "Latitude": 48.32,
      "Longitude": -4.24,
      "Nombre_Habitants": 2234
  },
  {
      "Code_Insee": 29081,
      "Nom": "Huelgoat",
      "Code_Postal": 29690,
      "Densite_Pop": 94.0,
      "Place_Camping_Hotel": 181.0,
      "Nombre_Medecin": 1,
      "Nombre_Intervention": 0.0,
      "Latitude": 48.36,
      "Longitude": -3.76,
      "Nombre_Habitants": 1398
  },
  {
      "Code_Insee": 29082,
      "Nom": "\u00cele-de-Batz",
      "Code_Postal": 29253,
      "Densite_Pop": 147.0,
      "Place_Camping_Hotel": 110.0,
      "Nombre_Medecin": 1,
      "Nombre_Intervention": 0.0,
      "Latitude": 48.75,
      "Longitude": -4.01,
      "Nombre_Habitants": 449
  },
  {
      "Code_Insee": 29083,
      "Nom": "\u00cele-de-Sein",
      "Code_Postal": 29990,
      "Densite_Pop": 455.0,
      "Place_Camping_Hotel": 10.0,
      "Nombre_Medecin": 1,
      "Nombre_Intervention": 0.0,
      "Latitude": 48.04,
      "Longitude": -4.86,
      "Nombre_Habitants": 273
  },
  {
      "Code_Insee": 29084,
      "Nom": "\u00cele-Mol\u00e8ne",
      "Code_Postal": 29259,
      "Densite_Pop": 219.0,
      "Place_Camping_Hotel": 20.0,
      "Nombre_Medecin": 0,
      "Nombre_Intervention": 0.0,
      "Latitude": 48.4,
      "Longitude": -4.96,
      "Nombre_Habitants": 164
  },
  {
      "Code_Insee": 29085,
      "Nom": "\u00cele-Tudy",
      "Code_Postal": 29980,
      "Densite_Pop": 588.0,
      "Place_Camping_Hotel": 205.0,
      "Nombre_Medecin": 0,
      "Nombre_Intervention": 0.0,
      "Latitude": 47.85,
      "Longitude": -4.16,
      "Nombre_Habitants": 741
  },
  {
      "Code_Insee": 29086,
      "Nom": "Irvillac",
      "Code_Postal": 29460,
      "Densite_Pop": 49.0,
      "Place_Camping_Hotel": 0.0,
      "Nombre_Medecin": 1,
      "Nombre_Intervention": 0.0,
      "Latitude": 48.37,
      "Longitude": -4.2,
      "Nombre_Habitants": 1443
  },
  {
      "Code_Insee": 29087,
      "Nom": "Le Juch",
      "Code_Postal": 29100,
      "Densite_Pop": 52.0,
      "Place_Camping_Hotel": 0.0,
      "Nombre_Medecin": 0,
      "Nombre_Intervention": 0.0,
      "Latitude": 48.06,
      "Longitude": -4.27,
      "Nombre_Habitants": 742
  },
  {
      "Code_Insee": 29089,
      "Nom": "Kergloff",
      "Code_Postal": 29270,
      "Densite_Pop": 34.0,
      "Place_Camping_Hotel": 0.0,
      "Nombre_Medecin": 0,
      "Nombre_Intervention": 0.0,
      "Latitude": 48.28,
      "Longitude": -3.65,
      "Nombre_Habitants": 859
  },
  {
      "Code_Insee": 29090,
      "Nom": "Kerlaz",
      "Code_Postal": 29100,
      "Densite_Pop": 69.0,
      "Place_Camping_Hotel": 0.0,
      "Nombre_Medecin": 0,
      "Nombre_Intervention": 0.0,
      "Latitude": 48.09,
      "Longitude": -4.26,
      "Nombre_Habitants": 792
  },
  {
      "Code_Insee": 29091,
      "Nom": "Kerlouan",
      "Code_Postal": 29890,
      "Densite_Pop": 116.0,
      "Place_Camping_Hotel": 184.0,
      "Nombre_Medecin": 2,
      "Nombre_Intervention": 0.0,
      "Latitude": 48.65,
      "Longitude": -4.38,
      "Nombre_Habitants": 2058
  },
  {
      "Code_Insee": 29093,
      "Nom": "Kernilis",
      "Code_Postal": 29260,
      "Densite_Pop": 140.0,
      "Place_Camping_Hotel": 0.0,
      "Nombre_Medecin": 0,
      "Nombre_Intervention": 0.0,
      "Latitude": 48.58,
      "Longitude": -4.41,
      "Nombre_Habitants": 1423
  },
  {
      "Code_Insee": 29094,
      "Nom": "Kernou\u00ebs",
      "Code_Postal": 29260,
      "Densite_Pop": 84.0,
      "Place_Camping_Hotel": 0.0,
      "Nombre_Medecin": 0,
      "Nombre_Intervention": 0.0,
      "Latitude": 48.59,
      "Longitude": -4.34,
      "Nombre_Habitants": 656
  },
  {
      "Code_Insee": 29095,
      "Nom": "Kersaint-Plabennec",
      "Code_Postal": 29860,
      "Densite_Pop": 126.0,
      "Place_Camping_Hotel": 0.0,
      "Nombre_Medecin": 2,
      "Nombre_Intervention": 0.0,
      "Latitude": 48.48,
      "Longitude": -4.36,
      "Nombre_Habitants": 1503
  },
  {
      "Code_Insee": 29097,
      "Nom": "Lampaul-Guimiliau",
      "Code_Postal": 29400,
      "Densite_Pop": 115.0,
      "Place_Camping_Hotel": 0.0,
      "Nombre_Medecin": 1,
      "Nombre_Intervention": 0.0,
      "Latitude": 48.48,
      "Longitude": -4.04,
      "Nombre_Habitants": 2009
  },
  {
      "Code_Insee": 29098,
      "Nom": "Lampaul-Plouarzel",
      "Code_Postal": 29810,
      "Densite_Pop": 533.0,
      "Place_Camping_Hotel": 0.0,
      "Nombre_Medecin": 2,
      "Nombre_Intervention": 0.0,
      "Latitude": 48.45,
      "Longitude": -4.76,
      "Nombre_Habitants": 2153
  },
  {
      "Code_Insee": 29099,
      "Nom": "Lampaul-Ploudalm\u00e9zeau",
      "Code_Postal": 29830,
      "Densite_Pop": 130.0,
      "Place_Camping_Hotel": 156.0,
      "Nombre_Medecin": 0,
      "Nombre_Intervention": 0.0,
      "Latitude": 48.55,
      "Longitude": -4.65,
      "Nombre_Habitants": 825
  },
  {
      "Code_Insee": 29100,
      "Nom": "Lanarvily",
      "Code_Postal": 29260,
      "Densite_Pop": 69.0,
      "Place_Camping_Hotel": 0.0,
      "Nombre_Medecin": 0,
      "Nombre_Intervention": 0.0,
      "Latitude": 48.56,
      "Longitude": -4.38,
      "Nombre_Habitants": 409
  },
  {
      "Code_Insee": 29101,
      "Nom": "Land\u00e9da",
      "Code_Postal": 29870,
      "Densite_Pop": 333.0,
      "Place_Camping_Hotel": 322.0,
      "Nombre_Medecin": 1,
      "Nombre_Intervention": 0.0,
      "Latitude": 48.59,
      "Longitude": -4.58,
      "Nombre_Habitants": 3654
  },
  {
      "Code_Insee": 29101,
      "Nom": "Land\u00e9da",
      "Code_Postal": 29870,
      "Densite_Pop": 333.0,
      "Place_Camping_Hotel": 322.0,
      "Nombre_Medecin": 1,
      "Nombre_Intervention": 0.0,
      "Latitude": 48.59,
      "Longitude": -4.58,
      "Nombre_Habitants": 3654
  },
  {
      "Code_Insee": 29102,
      "Nom": "Landeleau",
      "Code_Postal": 29530,
      "Densite_Pop": 32.0,
      "Place_Camping_Hotel": 20.0,
      "Nombre_Medecin": 0,
      "Nombre_Intervention": 0.0,
      "Latitude": 48.25,
      "Longitude": -3.73,
      "Nombre_Habitants": 967
  },
  {
      "Code_Insee": 29103,
      "Nom": "Landerneau",
      "Code_Postal": 29800,
      "Densite_Pop": 1229.0,
      "Place_Camping_Hotel": 133.0,
      "Nombre_Medecin": 19,
      "Nombre_Intervention": 86032.0,
      "Latitude": 48.45,
      "Longitude": -4.26,
      "Nombre_Habitants": 16206
  },
  {
      "Code_Insee": 29104,
      "Nom": "Land\u00e9vennec",
      "Code_Postal": 29560,
      "Densite_Pop": 24.0,
      "Place_Camping_Hotel": 20.0,
      "Nombre_Medecin": 0,
      "Nombre_Intervention": 0.0,
      "Latitude": 48.28,
      "Longitude": -4.31,
      "Nombre_Habitants": 338
  },
  {
      "Code_Insee": 29105,
      "Nom": "Landivisiau",
      "Code_Postal": 29400,
      "Densite_Pop": 484.0,
      "Place_Camping_Hotel": 64.0,
      "Nombre_Medecin": 9,
      "Nombre_Intervention": 49024.0,
      "Latitude": 48.52,
      "Longitude": -4.06,
      "Nombre_Habitants": 9192
  },
  {
      "Code_Insee": 29106,
      "Nom": "Landr\u00e9varzec",
      "Code_Postal": 29510,
      "Densite_Pop": 92.0,
      "Place_Camping_Hotel": 0.0,
      "Nombre_Medecin": 0,
      "Nombre_Intervention": 0.0,
      "Latitude": 48.09,
      "Longitude": -4.08,
      "Nombre_Habitants": 1861
  },
  {
      "Code_Insee": 29107,
      "Nom": "Landudal",
      "Code_Postal": 29510,
      "Densite_Pop": 54.0,
      "Place_Camping_Hotel": 0.0,
      "Nombre_Medecin": 0,
      "Nombre_Intervention": 0.0,
      "Latitude": 48.06,
      "Longitude": -3.98,
      "Nombre_Habitants": 906
  },
  {
      "Code_Insee": 29108,
      "Nom": "Landudec",
      "Code_Postal": 29710,
      "Densite_Pop": 73.0,
      "Place_Camping_Hotel": 197.0,
      "Nombre_Medecin": 1,
      "Nombre_Intervention": 0.0,
      "Latitude": 48.0,
      "Longitude": -4.33,
      "Nombre_Habitants": 1495
  },
  {
      "Code_Insee": 29109,
      "Nom": "Landunvez",
      "Code_Postal": 29840,
      "Densite_Pop": 112.0,
      "Place_Camping_Hotel": 147.0,
      "Nombre_Medecin": 0,
      "Nombre_Intervention": 0.0,
      "Latitude": 48.53,
      "Longitude": -4.73,
      "Nombre_Habitants": 1518
  },
  {
      "Code_Insee": 29110,
      "Nom": "Langolen",
      "Code_Postal": 29510,
      "Densite_Pop": 50.0,
      "Place_Camping_Hotel": 0.0,
      "Nombre_Medecin": 0,
      "Nombre_Intervention": 0.0,
      "Latitude": 48.07,
      "Longitude": -3.92,
      "Nombre_Habitants": 847
  },
  {
      "Code_Insee": 29111,
      "Nom": "Lanhouarneau",
      "Code_Postal": 29430,
      "Densite_Pop": 74.0,
      "Place_Camping_Hotel": 0.0,
      "Nombre_Medecin": 1,
      "Nombre_Intervention": 0.0,
      "Latitude": 48.58,
      "Longitude": -4.2,
      "Nombre_Habitants": 1305
  },
  {
      "Code_Insee": 29112,
      "Nom": "Lanildut",
      "Code_Postal": 29840,
      "Densite_Pop": 165.0,
      "Place_Camping_Hotel": 62.0,
      "Nombre_Medecin": 2,
      "Nombre_Intervention": 0.0,
      "Latitude": 48.48,
      "Longitude": -4.73,
      "Nombre_Habitants": 962
  },
  {
      "Code_Insee": 29113,
      "Nom": "Lanmeur",
      "Code_Postal": 29620,
      "Densite_Pop": 89.0,
      "Place_Camping_Hotel": 0.0,
      "Nombre_Medecin": 5,
      "Nombre_Intervention": 22744.0,
      "Latitude": 48.64,
      "Longitude": -3.72,
      "Nombre_Habitants": 2362
  },
  {
      "Code_Insee": 29114,
      "Nom": "Lann\u00e9anou",
      "Code_Postal": 29640,
      "Densite_Pop": 21.0,
      "Place_Camping_Hotel": 0.0,
      "Nombre_Medecin": 0,
      "Nombre_Intervention": 0.0,
      "Latitude": 48.5,
      "Longitude": -3.67,
      "Nombre_Habitants": 344
  },
  {
      "Code_Insee": 29115,
      "Nom": "Lann\u00e9dern",
      "Code_Postal": 29190,
      "Densite_Pop": 25.0,
      "Place_Camping_Hotel": 0.0,
      "Nombre_Medecin": 0,
      "Nombre_Intervention": 0.0,
      "Latitude": 48.29,
      "Longitude": -3.9,
      "Nombre_Habitants": 311
  },
  {
      "Code_Insee": 29116,
      "Nom": "Lanneuffret",
      "Code_Postal": 29400,
      "Densite_Pop": 67.0,
      "Place_Camping_Hotel": 0.0,
      "Nombre_Medecin": 0,
      "Nombre_Intervention": 0.0,
      "Latitude": 48.5,
      "Longitude": -4.2,
      "Nombre_Habitants": 150
  },
  {
      "Code_Insee": 29117,
      "Nom": "Lannilis",
      "Code_Postal": 29870,
      "Densite_Pop": 243.0,
      "Place_Camping_Hotel": 7.0,
      "Nombre_Medecin": 5,
      "Nombre_Intervention": 28817.0,
      "Latitude": 48.57,
      "Longitude": -4.52,
      "Nombre_Habitants": 5708
  },
  {
      "Code_Insee": 29119,
      "Nom": "Lanrivoar\u00e9",
      "Code_Postal": 29290,
      "Densite_Pop": 102.0,
      "Place_Camping_Hotel": 0.0,
      "Nombre_Medecin": 4,
      "Nombre_Intervention": 12459.0,
      "Latitude": 48.47,
      "Longitude": -4.64,
      "Nombre_Habitants": 1512
  },
  {
      "Code_Insee": 29120,
      "Nom": "Lanv\u00e9oc",
      "Code_Postal": 29160,
      "Densite_Pop": 102.0,
      "Place_Camping_Hotel": 201.0,
      "Nombre_Medecin": 3,
      "Nombre_Intervention": 0.0,
      "Latitude": 48.28,
      "Longitude": -4.44,
      "Nombre_Habitants": 1955
  },
  {
      "Code_Insee": 29122,
      "Nom": "Laz",
      "Code_Postal": 29520,
      "Densite_Pop": 20.0,
      "Place_Camping_Hotel": 0.0,
      "Nombre_Medecin": 0,
      "Nombre_Intervention": 0.0,
      "Latitude": 48.14,
      "Longitude": -3.84,
      "Nombre_Habitants": 685
  },
  {
      "Code_Insee": 29123,
      "Nom": "Lennon",
      "Code_Postal": 29190,
      "Densite_Pop": 34.0,
      "Place_Camping_Hotel": 0.0,
      "Nombre_Medecin": 0,
      "Nombre_Intervention": 0.0,
      "Latitude": 48.21,
      "Longitude": -3.9,
      "Nombre_Habitants": 789
  },
  {
      "Code_Insee": 29124,
      "Nom": "Lesneven",
      "Code_Postal": 29260,
      "Densite_Pop": 718.0,
      "Place_Camping_Hotel": 0.0,
      "Nombre_Medecin": 7,
      "Nombre_Intervention": 39646.0,
      "Latitude": 48.58,
      "Longitude": -4.31,
      "Nombre_Habitants": 7377
  },
  {
      "Code_Insee": 29125,
      "Nom": "Leuhan",
      "Code_Postal": 29390,
      "Densite_Pop": 25.0,
      "Place_Camping_Hotel": 0.0,
      "Nombre_Medecin": 0,
      "Nombre_Intervention": 0.0,
      "Latitude": 48.1,
      "Longitude": -3.78,
      "Nombre_Habitants": 827
  },
  {
      "Code_Insee": 29126,
      "Nom": "Loc-Br\u00e9valaire",
      "Code_Postal": 29260,
      "Densite_Pop": 126.0,
      "Place_Camping_Hotel": 0.0,
      "Nombre_Medecin": 0,
      "Nombre_Intervention": 0.0,
      "Latitude": 48.55,
      "Longitude": -4.41,
      "Nombre_Habitants": 211
  },
  {
      "Code_Insee": 29128,
      "Nom": "Loc-Eguiner",
      "Code_Postal": 29400,
      "Densite_Pop": 33.0,
      "Place_Camping_Hotel": 0.0,
      "Nombre_Medecin": 0,
      "Nombre_Intervention": 0.0,
      "Latitude": 48.48,
      "Longitude": -4.09,
      "Nombre_Habitants": 387
  },
  {
      "Code_Insee": 29129,
      "Nom": "Locmaria-Berrien",
      "Code_Postal": 29690,
      "Densite_Pop": 0.0,
      "Place_Camping_Hotel": 0.0,
      "Nombre_Medecin": 0.0,
      "Nombre_Intervention": 0.0,
      "Latitude": 48.36,
      "Longitude": -3.7
  },
  {
      "Code_Insee": 29130,
      "Nom": "Locmaria-Plouzan\u00e9",
      "Code_Postal": 29280,
      "Densite_Pop": 222.0,
      "Place_Camping_Hotel": 102.0,
      "Nombre_Medecin": 4,
      "Nombre_Intervention": 22995.0,
      "Latitude": 48.37,
      "Longitude": -4.65,
      "Nombre_Habitants": 5138
  },
  {
      "Code_Insee": 29131,
      "Nom": "Locm\u00e9lar",
      "Code_Postal": 29400,
      "Densite_Pop": 30.0,
      "Place_Camping_Hotel": 0.0,
      "Nombre_Medecin": 0,
      "Nombre_Intervention": 0.0,
      "Latitude": 48.45,
      "Longitude": -4.06,
      "Nombre_Habitants": 474
  },
  {
      "Code_Insee": 29132,
      "Nom": "Locqu\u00e9nol\u00e9",
      "Code_Postal": 29670,
      "Densite_Pop": 940.0,
      "Place_Camping_Hotel": 0.0,
      "Nombre_Medecin": 0,
      "Nombre_Intervention": 0.0,
      "Latitude": 48.62,
      "Longitude": -3.86,
      "Nombre_Habitants": 799
  },
  {
      "Code_Insee": 29133,
      "Nom": "Locquirec",
      "Code_Postal": 29241,
      "Densite_Pop": 256.0,
      "Place_Camping_Hotel": 488.0,
      "Nombre_Medecin": 0,
      "Nombre_Intervention": 0.0,
      "Latitude": 48.68,
      "Longitude": -3.67,
      "Nombre_Habitants": 1528
  },
  {
      "Code_Insee": 29134,
      "Nom": "Locronan",
      "Code_Postal": 29180,
      "Densite_Pop": 97.0,
      "Place_Camping_Hotel": 137.0,
      "Nombre_Medecin": 1,
      "Nombre_Intervention": 0.0,
      "Latitude": 48.1,
      "Longitude": -4.21,
      "Nombre_Habitants": 784
  },
  {
      "Code_Insee": 29135,
      "Nom": "Loctudy",
      "Code_Postal": 29750,
      "Densite_Pop": 315.0,
      "Place_Camping_Hotel": 276.0,
      "Nombre_Medecin": 3,
      "Nombre_Intervention": 0.0,
      "Latitude": 47.82,
      "Longitude": -4.19,
      "Nombre_Habitants": 4011
  },
  {
      "Code_Insee": 29136,
      "Nom": "Locunol\u00e9",
      "Code_Postal": 29310,
      "Densite_Pop": 70.0,
      "Place_Camping_Hotel": 409.0,
      "Nombre_Medecin": 0,
      "Nombre_Intervention": 0.0,
      "Latitude": 47.92,
      "Longitude": -3.49,
      "Nombre_Habitants": 1169
  },
  {
      "Code_Insee": 29137,
      "Nom": "Logonna-Daoulas",
      "Code_Postal": 29460,
      "Densite_Pop": 175.0,
      "Place_Camping_Hotel": 143.0,
      "Nombre_Medecin": 2,
      "Nombre_Intervention": 0.0,
      "Latitude": 48.33,
      "Longitude": -4.29,
      "Nombre_Habitants": 2123
  },
  {
      "Code_Insee": 29139,
      "Nom": "Lop\u00e9rec",
      "Code_Postal": 29590,
      "Densite_Pop": 22.0,
      "Place_Camping_Hotel": 0.0,
      "Nombre_Medecin": 1,
      "Nombre_Intervention": 0.0,
      "Latitude": 48.3,
      "Longitude": -4.03,
      "Nombre_Habitants": 879
  },
  {
      "Code_Insee": 29140,
      "Nom": "Loperhet",
      "Code_Postal": 29470,
      "Densite_Pop": 195.0,
      "Place_Camping_Hotel": 0.0,
      "Nombre_Medecin": 5,
      "Nombre_Intervention": 24555.0,
      "Latitude": 48.38,
      "Longitude": -4.31,
      "Nombre_Habitants": 3951
  },
  {
      "Code_Insee": 29141,
      "Nom": "Loqueffret",
      "Code_Postal": 29530,
      "Densite_Pop": 12.0,
      "Place_Camping_Hotel": 0.0,
      "Nombre_Medecin": 0,
      "Nombre_Intervention": 0.0,
      "Latitude": 48.33,
      "Longitude": -3.86,
      "Nombre_Habitants": 340
  },
  {
      "Code_Insee": 29142,
      "Nom": "Lothey",
      "Code_Postal": 29190,
      "Densite_Pop": 34.0,
      "Place_Camping_Hotel": 0.0,
      "Nombre_Medecin": 0,
      "Nombre_Intervention": 0.0,
      "Latitude": 48.18,
      "Longitude": -4.03,
      "Nombre_Habitants": 464
  },
  {
      "Code_Insee": 29143,
      "Nom": "Mahalon",
      "Code_Postal": 29790,
      "Densite_Pop": 46.0,
      "Place_Camping_Hotel": 0.0,
      "Nombre_Medecin": 0,
      "Nombre_Intervention": 0.0,
      "Latitude": 48.03,
      "Longitude": -4.42,
      "Nombre_Habitants": 994
  },
  {
      "Code_Insee": 29144,
      "Nom": "La Martyre",
      "Code_Postal": 29800,
      "Densite_Pop": 42.0,
      "Place_Camping_Hotel": 0.0,
      "Nombre_Medecin": 0,
      "Nombre_Intervention": 0.0,
      "Latitude": 48.44,
      "Longitude": -4.17,
      "Nombre_Habitants": 760
  },
  {
      "Code_Insee": 29145,
      "Nom": "Confort-Meilars",
      "Code_Postal": 29790,
      "Densite_Pop": 59.0,
      "Place_Camping_Hotel": 0.0,
      "Nombre_Medecin": 0,
      "Nombre_Intervention": 0.0,
      "Latitude": 48.06,
      "Longitude": -4.43,
      "Nombre_Habitants": 866
  },
  {
      "Code_Insee": 29146,
      "Nom": "Melgven",
      "Code_Postal": 29140,
      "Densite_Pop": 67.0,
      "Place_Camping_Hotel": 0.0,
      "Nombre_Medecin": 3,
      "Nombre_Intervention": 0.0,
      "Latitude": 47.91,
      "Longitude": -3.84,
      "Nombre_Habitants": 3405
  },
  {
      "Code_Insee": 29147,
      "Nom": "Mellac",
      "Code_Postal": 29300,
      "Densite_Pop": 126.0,
      "Place_Camping_Hotel": 51.0,
      "Nombre_Medecin": 4,
      "Nombre_Intervention": 14534.0,
      "Latitude": 47.9,
      "Longitude": -3.59,
      "Nombre_Habitants": 3329
  },
  {
      "Code_Insee": 29148,
      "Nom": "Mespaul",
      "Code_Postal": 29420,
      "Densite_Pop": 81.0,
      "Place_Camping_Hotel": 0.0,
      "Nombre_Medecin": 0,
      "Nombre_Intervention": 0.0,
      "Latitude": 48.61,
      "Longitude": -4.03,
      "Nombre_Habitants": 934
  },
  {
      "Code_Insee": 29149,
      "Nom": "Milizac",
      "Code_Postal": 29290,
      "Densite_Pop": 0.0,
      "Place_Camping_Hotel": 0.0,
      "Nombre_Medecin": 0.0,
      "Nombre_Intervention": 0.0,
      "Latitude": 48.46,
      "Longitude": -4.57
  },
  {
      "Code_Insee": 29150,
      "Nom": "Mo\u00eblan-sur-Mer",
      "Code_Postal": 29350,
      "Densite_Pop": 143.0,
      "Place_Camping_Hotel": 305.0,
      "Nombre_Medecin": 8,
      "Nombre_Intervention": 26407.0,
      "Latitude": 47.81,
      "Longitude": -3.65,
      "Nombre_Habitants": 6756
  },
  {
      "Code_Insee": 29150,
      "Nom": "Mo\u00eblan-sur-Mer",
      "Code_Postal": 29350,
      "Densite_Pop": 143.0,
      "Place_Camping_Hotel": 305.0,
      "Nombre_Medecin": 8,
      "Nombre_Intervention": 26407.0,
      "Latitude": 47.81,
      "Longitude": -3.65,
      "Nombre_Habitants": 6756
  },
  {
      "Code_Insee": 29151,
      "Nom": "Morlaix",
      "Code_Postal": 29600,
      "Densite_Pop": 600.0,
      "Place_Camping_Hotel": 171.0,
      "Nombre_Medecin": 13,
      "Nombre_Intervention": 73968.0,
      "Latitude": 48.6,
      "Longitude": -3.82,
      "Nombre_Habitants": 14903
  },
  {
      "Code_Insee": 29152,
      "Nom": "Motreff",
      "Code_Postal": 29270,
      "Densite_Pop": 33.0,
      "Place_Camping_Hotel": 0.0,
      "Nombre_Medecin": 0,
      "Nombre_Intervention": 0.0,
      "Latitude": 48.22,
      "Longitude": -3.56,
      "Nombre_Habitants": 704
  },
  {
      "Code_Insee": 29153,
      "Nom": "N\u00e9vez",
      "Code_Postal": 29920,
      "Densite_Pop": 106.0,
      "Place_Camping_Hotel": 1426.0,
      "Nombre_Medecin": 4,
      "Nombre_Intervention": 18983.0,
      "Latitude": 47.82,
      "Longitude": -3.78,
      "Nombre_Habitants": 2700
  },
  {
      "Code_Insee": 29153,
      "Nom": "N\u00e9vez",
      "Code_Postal": 29920,
      "Densite_Pop": 106.0,
      "Place_Camping_Hotel": 1426.0,
      "Nombre_Medecin": 4,
      "Nombre_Intervention": 18983.0,
      "Latitude": 47.82,
      "Longitude": -3.78,
      "Nombre_Habitants": 2700
  },
  {
      "Code_Insee": 29155,
      "Nom": "Ouessant",
      "Code_Postal": 29242,
      "Densite_Pop": 54.0,
      "Place_Camping_Hotel": 153.0,
      "Nombre_Medecin": 2,
      "Nombre_Intervention": 0.0,
      "Latitude": 48.46,
      "Longitude": -5.09,
      "Nombre_Habitants": 838
  },
  {
      "Code_Insee": 29156,
      "Nom": "Pencran",
      "Code_Postal": 29800,
      "Densite_Pop": 240.0,
      "Place_Camping_Hotel": 0.0,
      "Nombre_Medecin": 0,
      "Nombre_Intervention": 0.0,
      "Latitude": 48.44,
      "Longitude": -4.22,
      "Nombre_Habitants": 2146
  },
  {
      "Code_Insee": 29158,
      "Nom": "Penmarch",
      "Code_Postal": 29760,
      "Densite_Pop": 313.0,
      "Place_Camping_Hotel": 1175.0,
      "Nombre_Medecin": 8,
      "Nombre_Intervention": 33138.0,
      "Latitude": 47.81,
      "Longitude": -4.34,
      "Nombre_Habitants": 5130
  },
  {
      "Code_Insee": 29158,
      "Nom": "Penmarch",
      "Code_Postal": 29760,
      "Densite_Pop": 313.0,
      "Place_Camping_Hotel": 1175.0,
      "Nombre_Medecin": 8,
      "Nombre_Intervention": 33138.0,
      "Latitude": 47.81,
      "Longitude": -4.34,
      "Nombre_Habitants": 5130
  },
  {
      "Code_Insee": 29159,
      "Nom": "Peumerit",
      "Code_Postal": 29710,
      "Densite_Pop": 45.0,
      "Place_Camping_Hotel": 25.0,
      "Nombre_Medecin": 0,
      "Nombre_Intervention": 0.0,
      "Latitude": 47.95,
      "Longitude": -4.3,
      "Nombre_Habitants": 878
  },
  {
      "Code_Insee": 29160,
      "Nom": "Plabennec",
      "Code_Postal": 29860,
      "Densite_Pop": 170.0,
      "Place_Camping_Hotel": 23.0,
      "Nombre_Medecin": 7,
      "Nombre_Intervention": 38727.0,
      "Latitude": 48.49,
      "Longitude": -4.42,
      "Nombre_Habitants": 8589
  },
  {
      "Code_Insee": 29161,
      "Nom": "Pleuven",
      "Code_Postal": 29170,
      "Densite_Pop": 237.0,
      "Place_Camping_Hotel": 0.0,
      "Nombre_Medecin": 2,
      "Nombre_Intervention": 0.0,
      "Latitude": 47.92,
      "Longitude": -4.05,
      "Nombre_Habitants": 3247
  },
  {
      "Code_Insee": 29162,
      "Nom": "Pleyben",
      "Code_Postal": 29190,
      "Densite_Pop": 47.0,
      "Place_Camping_Hotel": 5.0,
      "Nombre_Medecin": 5,
      "Nombre_Intervention": 29003.0,
      "Latitude": 48.24,
      "Longitude": -3.98,
      "Nombre_Habitants": 3605
  },
  {
      "Code_Insee": 29163,
      "Nom": "Pleyber-Christ",
      "Code_Postal": 29410,
      "Densite_Pop": 70.0,
      "Place_Camping_Hotel": 13.0,
      "Nombre_Medecin": 3,
      "Nombre_Intervention": 0.0,
      "Latitude": 48.51,
      "Longitude": -3.87,
      "Nombre_Habitants": 3186
  },
  {
      "Code_Insee": 29165,
      "Nom": "Plobannalec-Lesconil",
      "Code_Postal": 29740,
      "Densite_Pop": 201.0,
      "Place_Camping_Hotel": 796.0,
      "Nombre_Medecin": 3,
      "Nombre_Intervention": 0.0,
      "Latitude": 47.82,
      "Longitude": -4.23,
      "Nombre_Habitants": 3655
  },
  {
      "Code_Insee": 29165,
      "Nom": "Plobannalec-Lesconil",
      "Code_Postal": 29740,
      "Densite_Pop": 201.0,
      "Place_Camping_Hotel": 796.0,
      "Nombre_Medecin": 3,
      "Nombre_Intervention": 0.0,
      "Latitude": 47.82,
      "Longitude": -4.23,
      "Nombre_Habitants": 3655
  },
  {
      "Code_Insee": 29166,
      "Nom": "Plo\u00e9ven",
      "Code_Postal": 29550,
      "Densite_Pop": 40.0,
      "Place_Camping_Hotel": 48.0,
      "Nombre_Medecin": 0,
      "Nombre_Intervention": 0.0,
      "Latitude": 48.16,
      "Longitude": -4.21,
      "Nombre_Habitants": 518
  },
  {
      "Code_Insee": 29167,
      "Nom": "Plogastel-Saint-Germain",
      "Code_Postal": 29710,
      "Densite_Pop": 64.0,
      "Place_Camping_Hotel": 10.0,
      "Nombre_Medecin": 1,
      "Nombre_Intervention": 0.0,
      "Latitude": 47.98,
      "Longitude": -4.26,
      "Nombre_Habitants": 2006
  },
  {
      "Code_Insee": 29168,
      "Nom": "Plogoff",
      "Code_Postal": 29770,
      "Densite_Pop": 102.0,
      "Place_Camping_Hotel": 32.0,
      "Nombre_Medecin": 0,
      "Nombre_Intervention": 0.0,
      "Latitude": 48.03,
      "Longitude": -4.68,
      "Nombre_Habitants": 1201
  },
  {
      "Code_Insee": 29169,
      "Nom": "Plogonnec",
      "Code_Postal": 29180,
      "Densite_Pop": 59.0,
      "Place_Camping_Hotel": 9.0,
      "Nombre_Medecin": 1,
      "Nombre_Intervention": 0.0,
      "Latitude": 48.07,
      "Longitude": -4.16,
      "Nombre_Habitants": 3210
  },
  {
      "Code_Insee": 29170,
      "Nom": "Plomelin",
      "Code_Postal": 29700,
      "Densite_Pop": 161.0,
      "Place_Camping_Hotel": 0.0,
      "Nombre_Medecin": 3,
      "Nombre_Intervention": 0.0,
      "Latitude": 47.94,
      "Longitude": -4.15,
      "Nombre_Habitants": 4187
  },
  {
      "Code_Insee": 29171,
      "Nom": "Plomeur",
      "Code_Postal": 29120,
      "Densite_Pop": 130.0,
      "Place_Camping_Hotel": 311.0,
      "Nombre_Medecin": 3,
      "Nombre_Intervention": 0.0,
      "Latitude": 47.84,
      "Longitude": -4.29,
      "Nombre_Habitants": 3866
  },
  {
      "Code_Insee": 29172,
      "Nom": "Plomodiern",
      "Code_Postal": 29550,
      "Densite_Pop": 48.0,
      "Place_Camping_Hotel": 480.0,
      "Nombre_Medecin": 2,
      "Nombre_Intervention": 0.0,
      "Latitude": 48.18,
      "Longitude": -4.22,
      "Nombre_Habitants": 2251
  },
  {
      "Code_Insee": 29173,
      "Nom": "Plon\u00e9is",
      "Code_Postal": 29710,
      "Densite_Pop": 110.0,
      "Place_Camping_Hotel": 0.0,
      "Nombre_Medecin": 0,
      "Nombre_Intervention": 0.0,
      "Latitude": 48.01,
      "Longitude": -4.21,
      "Nombre_Habitants": 2427
  },
  {
      "Code_Insee": 29174,
      "Nom": "Plon\u00e9our-Lanvern",
      "Code_Postal": 29720,
      "Densite_Pop": 130.0,
      "Place_Camping_Hotel": 69.0,
      "Nombre_Medecin": 7,
      "Nombre_Intervention": 25419.0,
      "Latitude": 47.91,
      "Longitude": -4.27,
      "Nombre_Habitants": 6347
  },
  {
      "Code_Insee": 29175,
      "Nom": "Plon\u00e9vez-du-Faou",
      "Code_Postal": 29530,
      "Densite_Pop": 27.0,
      "Place_Camping_Hotel": 18.0,
      "Nombre_Medecin": 0,
      "Nombre_Intervention": 0.0,
      "Latitude": 48.26,
      "Longitude": -3.82,
      "Nombre_Habitants": 2152
  },
  {
      "Code_Insee": 29176,
      "Nom": "Plon\u00e9vez-Porzay",
      "Code_Postal": 29550,
      "Densite_Pop": 61.0,
      "Place_Camping_Hotel": 840.0,
      "Nombre_Medecin": 3,
      "Nombre_Intervention": 0.0,
      "Latitude": 48.13,
      "Longitude": -4.24,
      "Nombre_Habitants": 1785
  },
  {
      "Code_Insee": 29177,
      "Nom": "Plouarzel",
      "Code_Postal": 29810,
      "Densite_Pop": 92.0,
      "Place_Camping_Hotel": 191.0,
      "Nombre_Medecin": 3,
      "Nombre_Intervention": 0.0,
      "Latitude": 48.44,
      "Longitude": -4.72,
      "Nombre_Habitants": 3942
  },
  {
      "Code_Insee": 29178,
      "Nom": "Ploudalm\u00e9zeau",
      "Code_Postal": 29830,
      "Densite_Pop": 274.0,
      "Place_Camping_Hotel": 0.0,
      "Nombre_Medecin": 12,
      "Nombre_Intervention": 48729.0,
      "Latitude": 48.54,
      "Longitude": -4.67,
      "Nombre_Habitants": 6358
  },
  {
      "Code_Insee": 29178,
      "Nom": "Ploudalm\u00e9zeau",
      "Code_Postal": 29830,
      "Densite_Pop": 274.0,
      "Place_Camping_Hotel": 0.0,
      "Nombre_Medecin": 12,
      "Nombre_Intervention": 48729.0,
      "Latitude": 48.54,
      "Longitude": -4.67,
      "Nombre_Habitants": 6358
  },
  {
      "Code_Insee": 29179,
      "Nom": "Ploudaniel",
      "Code_Postal": 29260,
      "Densite_Pop": 82.0,
      "Place_Camping_Hotel": 0.0,
      "Nombre_Medecin": 4,
      "Nombre_Intervention": 15651.0,
      "Latitude": 48.52,
      "Longitude": -4.31,
      "Nombre_Habitants": 3775
  },
  {
      "Code_Insee": 29180,
      "Nom": "Ploudiry",
      "Code_Postal": 29800,
      "Densite_Pop": 33.0,
      "Place_Camping_Hotel": 0.0,
      "Nombre_Medecin": 0,
      "Nombre_Intervention": 0.0,
      "Latitude": 48.46,
      "Longitude": -4.13,
      "Nombre_Habitants": 887
  },
  {
      "Code_Insee": 29181,
      "Nom": "Plou\u00e9dern",
      "Code_Postal": 29800,
      "Densite_Pop": 155.0,
      "Place_Camping_Hotel": 0.0,
      "Nombre_Medecin": 3,
      "Nombre_Intervention": 0.0,
      "Latitude": 48.48,
      "Longitude": -4.25,
      "Nombre_Habitants": 3046
  },
  {
      "Code_Insee": 29182,
      "Nom": "Plou\u00e9gat-Gu\u00e9rand",
      "Code_Postal": 29620,
      "Densite_Pop": 61.0,
      "Place_Camping_Hotel": 0.0,
      "Nombre_Medecin": 1,
      "Nombre_Intervention": 0.0,
      "Latitude": 48.62,
      "Longitude": -3.67,
      "Nombre_Habitants": 1060
  },
  {
      "Code_Insee": 29183,
      "Nom": "Plou\u00e9gat-Moysan",
      "Code_Postal": 29650,
      "Densite_Pop": 48.0,
      "Place_Camping_Hotel": 0.0,
      "Nombre_Medecin": 0,
      "Nombre_Intervention": 0.0,
      "Latitude": 48.57,
      "Longitude": -3.62,
      "Nombre_Habitants": 718
  },
  {
      "Code_Insee": 29184,
      "Nom": "Plou\u00e9nan",
      "Code_Postal": 29420,
      "Densite_Pop": 84.0,
      "Place_Camping_Hotel": 43.0,
      "Nombre_Medecin": 1,
      "Nombre_Intervention": 0.0,
      "Latitude": 48.62,
      "Longitude": -3.98,
      "Nombre_Habitants": 2567
  },
  {
      "Code_Insee": 29185,
      "Nom": "Plouescat",
      "Code_Postal": 29430,
      "Densite_Pop": 239.0,
      "Place_Camping_Hotel": 378.0,
      "Nombre_Medecin": 2,
      "Nombre_Intervention": 0.0,
      "Latitude": 48.67,
      "Longitude": -4.18,
      "Nombre_Habitants": 3528
  },
  {
      "Code_Insee": 29186,
      "Nom": "Plouezoc'h",
      "Code_Postal": 29252,
      "Densite_Pop": 103.0,
      "Place_Camping_Hotel": 83.0,
      "Nombre_Medecin": 2,
      "Nombre_Intervention": 0.0,
      "Latitude": 48.64,
      "Longitude": -3.82,
      "Nombre_Habitants": 1630
  },
  {
      "Code_Insee": 29187,
      "Nom": "Plougar",
      "Code_Postal": 29440,
      "Densite_Pop": 45.0,
      "Place_Camping_Hotel": 0.0,
      "Nombre_Medecin": 0,
      "Nombre_Intervention": 0.0,
      "Latitude": 48.56,
      "Longitude": -4.13,
      "Nombre_Habitants": 792
  },
  {
      "Code_Insee": 29188,
      "Nom": "Plougasnou",
      "Code_Postal": 29630,
      "Densite_Pop": 85.0,
      "Place_Camping_Hotel": 302.0,
      "Nombre_Medecin": 2,
      "Nombre_Intervention": 0.0,
      "Latitude": 48.68,
      "Longitude": -3.81,
      "Nombre_Habitants": 2878
  },
  {
      "Code_Insee": 29188,
      "Nom": "Plougasnou",
      "Code_Postal": 29630,
      "Densite_Pop": 85.0,
      "Place_Camping_Hotel": 302.0,
      "Nombre_Medecin": 2,
      "Nombre_Intervention": 0.0,
      "Latitude": 48.68,
      "Longitude": -3.81,
      "Nombre_Habitants": 2878
  },
  {
      "Code_Insee": 29189,
      "Nom": "Plougastel-Daoulas",
      "Code_Postal": 29470,
      "Densite_Pop": 287.0,
      "Place_Camping_Hotel": 258.0,
      "Nombre_Medecin": 13,
      "Nombre_Intervention": 52480.0,
      "Latitude": 48.36,
      "Longitude": -4.38,
      "Nombre_Habitants": 13445
  },
  {
      "Code_Insee": 29190,
      "Nom": "Plougonvelin",
      "Code_Postal": 29217,
      "Densite_Pop": 236.0,
      "Place_Camping_Hotel": 235.0,
      "Nombre_Medecin": 4,
      "Nombre_Intervention": 15950.0,
      "Latitude": 48.35,
      "Longitude": -4.72,
      "Nombre_Habitants": 4410
  },
  {
      "Code_Insee": 29190,
      "Nom": "Plougonvelin",
      "Code_Postal": 29217,
      "Densite_Pop": 236.0,
      "Place_Camping_Hotel": 235.0,
      "Nombre_Medecin": 4,
      "Nombre_Intervention": 15950.0,
      "Latitude": 48.35,
      "Longitude": -4.72,
      "Nombre_Habitants": 4410
  },
  {
      "Code_Insee": 29191,
      "Nom": "Plougonven",
      "Code_Postal": 29640,
      "Densite_Pop": 49.0,
      "Place_Camping_Hotel": 0.0,
      "Nombre_Medecin": 2,
      "Nombre_Intervention": 0.0,
      "Latitude": 48.51,
      "Longitude": -3.73,
      "Nombre_Habitants": 3412
  },
  {
      "Code_Insee": 29192,
      "Nom": "Plougoulm",
      "Code_Postal": 29250,
      "Densite_Pop": 96.0,
      "Place_Camping_Hotel": 34.0,
      "Nombre_Medecin": 2,
      "Nombre_Intervention": 0.0,
      "Latitude": 48.66,
      "Longitude": -4.04,
      "Nombre_Habitants": 1767
  },
  {
      "Code_Insee": 29193,
      "Nom": "Plougourvest",
      "Code_Postal": 29400,
      "Densite_Pop": 104.0,
      "Place_Camping_Hotel": 0.0,
      "Nombre_Medecin": 0,
      "Nombre_Intervention": 0.0,
      "Latitude": 48.55,
      "Longitude": -4.07,
      "Nombre_Habitants": 1467
  },
  {
      "Code_Insee": 29195,
      "Nom": "Plouguerneau",
      "Code_Postal": 29880,
      "Densite_Pop": 154.0,
      "Place_Camping_Hotel": 189.0,
      "Nombre_Medecin": 5,
      "Nombre_Intervention": 28123.0,
      "Latitude": 48.6,
      "Longitude": -4.49,
      "Nombre_Habitants": 6682
  },
  {
      "Code_Insee": 29196,
      "Nom": "Plouguin",
      "Code_Postal": 29830,
      "Densite_Pop": 71.0,
      "Place_Camping_Hotel": 0.0,
      "Nombre_Medecin": 2,
      "Nombre_Intervention": 0.0,
      "Latitude": 48.53,
      "Longitude": -4.59,
      "Nombre_Habitants": 2204
  },
  {
      "Code_Insee": 29197,
      "Nom": "Plouhinec",
      "Code_Postal": 29780,
      "Densite_Pop": 140.0,
      "Place_Camping_Hotel": 383.0,
      "Nombre_Medecin": 1,
      "Nombre_Intervention": 0.0,
      "Latitude": 48.01,
      "Longitude": -4.48,
      "Nombre_Habitants": 3932
  },
  {
      "Code_Insee": 29198,
      "Nom": "Plouider",
      "Code_Postal": 29260,
      "Densite_Pop": 77.0,
      "Place_Camping_Hotel": 32.0,
      "Nombre_Medecin": 0,
      "Nombre_Intervention": 0.0,
      "Latitude": 48.6,
      "Longitude": -4.29,
      "Nombre_Habitants": 1816
  },
  {
      "Code_Insee": 29199,
      "Nom": "Plouigneau",
      "Code_Postal": 29610,
      "Densite_Pop": 78.0,
      "Place_Camping_Hotel": 62.0,
      "Nombre_Medecin": 4,
      "Nombre_Intervention": 12612.0,
      "Latitude": 48.57,
      "Longitude": -3.7,
      "Nombre_Habitants": 5057
  },
  {
      "Code_Insee": 29201,
      "Nom": "Ploumoguer",
      "Code_Postal": 29810,
      "Densite_Pop": 54.0,
      "Place_Camping_Hotel": 0.0,
      "Nombre_Medecin": 4,
      "Nombre_Intervention": 11638.0,
      "Latitude": 48.4,
      "Longitude": -4.72,
      "Nombre_Habitants": 2120
  },
  {
      "Code_Insee": 29202,
      "Nom": "Ploun\u00e9our-M\u00e9nez",
      "Code_Postal": 29410,
      "Densite_Pop": 25.0,
      "Place_Camping_Hotel": 0.0,
      "Nombre_Medecin": 0,
      "Nombre_Intervention": 0.0,
      "Latitude": 48.45,
      "Longitude": -3.88,
      "Nombre_Habitants": 1295
  },
  {
      "Code_Insee": 29203,
      "Nom": "Ploun\u00e9our-Trez",
      "Code_Postal": 29890,
      "Densite_Pop": 0.0,
      "Place_Camping_Hotel": 0.0,
      "Nombre_Medecin": 0.0,
      "Nombre_Intervention": 0.0,
      "Latitude": 48.65,
      "Longitude": -4.33
  },
  {
      "Code_Insee": 29204,
      "Nom": "Ploun\u00e9venter",
      "Code_Postal": 29400,
      "Densite_Pop": 80.0,
      "Place_Camping_Hotel": 0.0,
      "Nombre_Medecin": 2,
      "Nombre_Intervention": 0.0,
      "Latitude": 48.52,
      "Longitude": -4.21,
      "Nombre_Habitants": 2173
  },
  {
      "Code_Insee": 29205,
      "Nom": "Ploun\u00e9v\u00e9zel",
      "Code_Postal": 29270,
      "Densite_Pop": 48.0,
      "Place_Camping_Hotel": 0.0,
      "Nombre_Medecin": 0,
      "Nombre_Intervention": 0.0,
      "Latitude": 48.31,
      "Longitude": -3.57,
      "Nombre_Habitants": 1163
  },
  {
      "Code_Insee": 29206,
      "Nom": "Ploun\u00e9vez-Lochrist",
      "Code_Postal": 29430,
      "Densite_Pop": 58.0,
      "Place_Camping_Hotel": 110.0,
      "Nombre_Medecin": 1,
      "Nombre_Intervention": 0.0,
      "Latitude": 48.62,
      "Longitude": -4.2,
      "Nombre_Habitants": 2289
  },
  {
      "Code_Insee": 29207,
      "Nom": "Plourin-l\u00e8s-Morlaix",
      "Code_Postal": 29600,
      "Densite_Pop": 110.0,
      "Place_Camping_Hotel": 0.0,
      "Nombre_Medecin": 2,
      "Nombre_Intervention": 0.0,
      "Latitude": 48.52,
      "Longitude": -3.8,
      "Nombre_Habitants": 4510
  },
  {
      "Code_Insee": 29208,
      "Nom": "Plourin",
      "Code_Postal": 29830,
      "Densite_Pop": 49.0,
      "Place_Camping_Hotel": 0.0,
      "Nombre_Medecin": 0,
      "Nombre_Intervention": 0.0,
      "Latitude": 48.5,
      "Longitude": -4.68,
      "Nombre_Habitants": 1258
  },
  {
      "Code_Insee": 29209,
      "Nom": "Plouvien",
      "Code_Postal": 29860,
      "Densite_Pop": 116.0,
      "Place_Camping_Hotel": 0.0,
      "Nombre_Medecin": 2,
      "Nombre_Intervention": 0.0,
      "Latitude": 48.54,
      "Longitude": -4.47,
      "Nombre_Habitants": 3892
  },
  {
      "Code_Insee": 29210,
      "Nom": "Plouvorn",
      "Code_Postal": 29420,
      "Densite_Pop": 82.0,
      "Place_Camping_Hotel": 0.0,
      "Nombre_Medecin": 4,
      "Nombre_Intervention": 20166.0,
      "Latitude": 48.58,
      "Longitude": -4.02,
      "Nombre_Habitants": 2907
  },
  {
      "Code_Insee": 29211,
      "Nom": "Plouy\u00e9",
      "Code_Postal": 29690,
      "Densite_Pop": 17.0,
      "Place_Camping_Hotel": 0.0,
      "Nombre_Medecin": 0,
      "Nombre_Intervention": 0.0,
      "Latitude": 48.32,
      "Longitude": -3.73,
      "Nombre_Habitants": 652
  },
  {
      "Code_Insee": 29212,
      "Nom": "Plouzan\u00e9",
      "Code_Postal": 29280,
      "Densite_Pop": 407.0,
      "Place_Camping_Hotel": 9.0,
      "Nombre_Medecin": 11,
      "Nombre_Intervention": 53647.0,
      "Latitude": 48.38,
      "Longitude": -4.6,
      "Nombre_Habitants": 13473
  },
  {
      "Code_Insee": 29213,
      "Nom": "Plouz\u00e9v\u00e9d\u00e9",
      "Code_Postal": 29440,
      "Densite_Pop": 98.0,
      "Place_Camping_Hotel": 0.0,
      "Nombre_Medecin": 2,
      "Nombre_Intervention": 0.0,
      "Latitude": 48.59,
      "Longitude": -4.1,
      "Nombre_Habitants": 1815
  },
  {
      "Code_Insee": 29214,
      "Nom": "Plovan",
      "Code_Postal": 29720,
      "Densite_Pop": 43.0,
      "Place_Camping_Hotel": 25.0,
      "Nombre_Medecin": 0,
      "Nombre_Intervention": 0.0,
      "Latitude": 47.93,
      "Longitude": -4.36,
      "Nombre_Habitants": 682
  },
  {
      "Code_Insee": 29215,
      "Nom": "Ploz\u00e9vet",
      "Code_Postal": 29710,
      "Densite_Pop": 108.0,
      "Place_Camping_Hotel": 141.0,
      "Nombre_Medecin": 3,
      "Nombre_Intervention": 0.0,
      "Latitude": 47.98,
      "Longitude": -4.41,
      "Nombre_Habitants": 2940
  },
  {
      "Code_Insee": 29216,
      "Nom": "Pluguffan",
      "Code_Postal": 29700,
      "Densite_Pop": 131.0,
      "Place_Camping_Hotel": 0.0,
      "Nombre_Medecin": 3,
      "Nombre_Intervention": 0.0,
      "Latitude": 47.97,
      "Longitude": -4.19,
      "Nombre_Habitants": 4213
  },
  {
      "Code_Insee": 29217,
      "Nom": "Pont-Aven",
      "Code_Postal": 29930,
      "Densite_Pop": 98.0,
      "Place_Camping_Hotel": 1112.0,
      "Nombre_Medecin": 1,
      "Nombre_Intervention": 0.0,
      "Latitude": 47.87,
      "Longitude": -3.77,
      "Nombre_Habitants": 2813
  },
  {
      "Code_Insee": 29218,
      "Nom": "Pont-Croix",
      "Code_Postal": 29790,
      "Densite_Pop": 198.0,
      "Place_Camping_Hotel": 90.0,
      "Nombre_Medecin": 8,
      "Nombre_Intervention": 43391.0,
      "Latitude": 48.05,
      "Longitude": -4.5,
      "Nombre_Habitants": 1600
  },
  {
      "Code_Insee": 29219,
      "Nom": "Le Ponthou",
      "Code_Postal": 29650,
      "Densite_Pop": 0.0,
      "Place_Camping_Hotel": 0.0,
      "Nombre_Medecin": 0.0,
      "Nombre_Intervention": 0.0,
      "Latitude": 48.56,
      "Longitude": -3.64
  },
  {
      "Code_Insee": 29220,
      "Nom": "Pont-l'Abb\u00e9",
      "Code_Postal": 29120,
      "Densite_Pop": 461.0,
      "Place_Camping_Hotel": 104.0,
      "Nombre_Medecin": 14,
      "Nombre_Intervention": 58365.0,
      "Latitude": 47.87,
      "Longitude": -4.22,
      "Nombre_Habitants": 8395
  },
  {
      "Code_Insee": 29221,
      "Nom": "Porspoder",
      "Code_Postal": 29840,
      "Densite_Pop": 156.0,
      "Place_Camping_Hotel": 68.0,
      "Nombre_Medecin": 1,
      "Nombre_Intervention": 0.0,
      "Latitude": 48.5,
      "Longitude": -4.75,
      "Nombre_Habitants": 1758
  },
  {
      "Code_Insee": 29221,
      "Nom": "Porspoder",
      "Code_Postal": 29840,
      "Densite_Pop": 156.0,
      "Place_Camping_Hotel": 68.0,
      "Nombre_Medecin": 1,
      "Nombre_Intervention": 0.0,
      "Latitude": 48.5,
      "Longitude": -4.75,
      "Nombre_Habitants": 1758
  },
  {
      "Code_Insee": 29222,
      "Nom": "Port-Launay",
      "Code_Postal": 29150,
      "Densite_Pop": 198.0,
      "Place_Camping_Hotel": 0.0,
      "Nombre_Medecin": 0,
      "Nombre_Intervention": 0.0,
      "Latitude": 48.22,
      "Longitude": -4.08,
      "Nombre_Habitants": 396
  },
  {
      "Code_Insee": 29224,
      "Nom": "Pouldergat",
      "Code_Postal": 29100,
      "Densite_Pop": 50.0,
      "Place_Camping_Hotel": 0.0,
      "Nombre_Medecin": 0,
      "Nombre_Intervention": 0.0,
      "Latitude": 48.04,
      "Longitude": -4.33,
      "Nombre_Habitants": 1214
  },
  {
      "Code_Insee": 29225,
      "Nom": "Pouldreuzic",
      "Code_Postal": 29710,
      "Densite_Pop": 128.0,
      "Place_Camping_Hotel": 134.0,
      "Nombre_Medecin": 4,
      "Nombre_Intervention": 14840.0,
      "Latitude": 47.96,
      "Longitude": -4.36,
      "Nombre_Habitants": 2143
  },
  {
      "Code_Insee": 29226,
      "Nom": "Poullan-sur-Mer",
      "Code_Postal": 29100,
      "Densite_Pop": 49.0,
      "Place_Camping_Hotel": 190.0,
      "Nombre_Medecin": 1,
      "Nombre_Intervention": 0.0,
      "Latitude": 48.08,
      "Longitude": -4.4,
      "Nombre_Habitants": 1472
  },
  {
      "Code_Insee": 29227,
      "Nom": "Poullaouen",
      "Code_Postal": 29246,
      "Densite_Pop": 17.0,
      "Place_Camping_Hotel": 0.0,
      "Nombre_Medecin": 1,
      "Nombre_Intervention": 0.0,
      "Latitude": 48.35,
      "Longitude": -3.63,
      "Nombre_Habitants": 1462
  },
  {
      "Code_Insee": 29228,
      "Nom": "Primelin",
      "Code_Postal": 29770,
      "Densite_Pop": 74.0,
      "Place_Camping_Hotel": 75.0,
      "Nombre_Medecin": 0,
      "Nombre_Intervention": 0.0,
      "Latitude": 48.03,
      "Longitude": -4.61,
      "Nombre_Habitants": 640
  },
  {
      "Code_Insee": 29229,
      "Nom": "Qu\u00e9m\u00e9n\u00e9ven",
      "Code_Postal": 29180,
      "Densite_Pop": 39.0,
      "Place_Camping_Hotel": 0.0,
      "Nombre_Medecin": 0,
      "Nombre_Intervention": 0.0,
      "Latitude": 48.12,
      "Longitude": -4.14,
      "Nombre_Habitants": 1111
  },
  {
      "Code_Insee": 29230,
      "Nom": "Querrien",
      "Code_Postal": 29310,
      "Densite_Pop": 31.0,
      "Place_Camping_Hotel": 0.0,
      "Nombre_Medecin": 1,
      "Nombre_Intervention": 0.0,
      "Latitude": 47.96,
      "Longitude": -3.55,
      "Nombre_Habitants": 1655
  },
  {
      "Code_Insee": 29232,
      "Nom": "Quimper",
      "Code_Postal": 29000,
      "Densite_Pop": 754.0,
      "Place_Camping_Hotel": 1162.0,
      "Nombre_Medecin": 69,
      "Nombre_Intervention": 287338.0,
      "Latitude": 48.0,
      "Longitude": -4.09,
      "Nombre_Habitants": 63642
  },
  {
      "Code_Insee": 29233,
      "Nom": "Quimperl\u00e9",
      "Code_Postal": 29300,
      "Densite_Pop": 388.0,
      "Place_Camping_Hotel": 127.0,
      "Nombre_Medecin": 14,
      "Nombre_Intervention": 70665.0,
      "Latitude": 47.86,
      "Longitude": -3.56,
      "Nombre_Habitants": 12313
  },
  {
      "Code_Insee": 29234,
      "Nom": "R\u00e9den\u00e9",
      "Code_Postal": 29300,
      "Densite_Pop": 121.0,
      "Place_Camping_Hotel": 0.0,
      "Nombre_Medecin": 4,
      "Nombre_Intervention": 15557.0,
      "Latitude": 47.86,
      "Longitude": -3.49,
      "Nombre_Habitants": 2955
  },
  {
      "Code_Insee": 29235,
      "Nom": "Le Relecq-Kerhuon",
      "Code_Postal": 29480,
      "Densite_Pop": 1834.0,
      "Place_Camping_Hotel": 43.0,
      "Nombre_Medecin": 14,
      "Nombre_Intervention": 57865.0,
      "Latitude": 48.4,
      "Longitude": -4.4,
      "Nombre_Habitants": 11791
  },
  {
      "Code_Insee": 29236,
      "Nom": "Riec-sur-B\u00e9lon",
      "Code_Postal": 29340,
      "Densite_Pop": 79.0,
      "Place_Camping_Hotel": 217.0,
      "Nombre_Medecin": 4,
      "Nombre_Intervention": 21809.0,
      "Latitude": 47.85,
      "Longitude": -3.69,
      "Nombre_Habitants": 4307
  },
  {
      "Code_Insee": 29237,
      "Nom": "La Roche-Maurice",
      "Code_Postal": 29800,
      "Densite_Pop": 153.0,
      "Place_Camping_Hotel": 0.0,
      "Nombre_Medecin": 2,
      "Nombre_Intervention": 0.0,
      "Latitude": 48.47,
      "Longitude": -4.19,
      "Nombre_Habitants": 1838
  },
  {
      "Code_Insee": 29238,
      "Nom": "Roscanvel",
      "Code_Postal": 29570,
      "Densite_Pop": 91.0,
      "Place_Camping_Hotel": 56.0,
      "Nombre_Medecin": 0,
      "Nombre_Intervention": 0.0,
      "Latitude": 48.32,
      "Longitude": -4.56,
      "Nombre_Habitants": 823
  },
  {
      "Code_Insee": 29239,
      "Nom": "Roscoff",
      "Code_Postal": 29680,
      "Densite_Pop": 539.0,
      "Place_Camping_Hotel": 580.0,
      "Nombre_Medecin": 2,
      "Nombre_Intervention": 0.0,
      "Latitude": 48.71,
      "Longitude": -3.99,
      "Nombre_Habitants": 3334
  },
  {
      "Code_Insee": 29240,
      "Nom": "Rosno\u00ebn",
      "Code_Postal": 29590,
      "Densite_Pop": 29.0,
      "Place_Camping_Hotel": 0.0,
      "Nombre_Medecin": 0,
      "Nombre_Intervention": 0.0,
      "Latitude": 48.27,
      "Longitude": -4.2,
      "Nombre_Habitants": 974
  },
  {
      "Code_Insee": 29241,
      "Nom": "Rosporden",
      "Code_Postal": 29140,
      "Densite_Pop": 133.0,
      "Place_Camping_Hotel": 74.0,
      "Nombre_Medecin": 7,
      "Nombre_Intervention": 34108.0,
      "Latitude": 47.96,
      "Longitude": -3.8,
      "Nombre_Habitants": 7609
  },
  {
      "Code_Insee": 29241,
      "Nom": "Rosporden",
      "Code_Postal": 29140,
      "Densite_Pop": 133.0,
      "Place_Camping_Hotel": 74.0,
      "Nombre_Medecin": 7,
      "Nombre_Intervention": 34108.0,
      "Latitude": 47.96,
      "Longitude": -3.8,
      "Nombre_Habitants": 7609
  },
  {
      "Code_Insee": 29243,
      "Nom": "Saint-Coulitz",
      "Code_Postal": 29150,
      "Densite_Pop": 41.0,
      "Place_Camping_Hotel": 60.0,
      "Nombre_Medecin": 0,
      "Nombre_Intervention": 0.0,
      "Latitude": 48.18,
      "Longitude": -4.07,
      "Nombre_Habitants": 465
  },
  {
      "Code_Insee": 29244,
      "Nom": "Saint-Derrien",
      "Code_Postal": 29440,
      "Densite_Pop": 68.0,
      "Place_Camping_Hotel": 0.0,
      "Nombre_Medecin": 0,
      "Nombre_Intervention": 0.0,
      "Latitude": 48.54,
      "Longitude": -4.19,
      "Nombre_Habitants": 838
  },
  {
      "Code_Insee": 29245,
      "Nom": "Saint-Divy",
      "Code_Postal": 29800,
      "Densite_Pop": 186.0,
      "Place_Camping_Hotel": 0.0,
      "Nombre_Medecin": 2,
      "Nombre_Intervention": 0.0,
      "Latitude": 48.45,
      "Longitude": -4.33,
      "Nombre_Habitants": 1587
  },
  {
      "Code_Insee": 29246,
      "Nom": "Saint-Eloy",
      "Code_Postal": 29460,
      "Densite_Pop": 18.0,
      "Place_Camping_Hotel": 0.0,
      "Nombre_Medecin": 0,
      "Nombre_Intervention": 0.0,
      "Latitude": 48.36,
      "Longitude": -4.12,
      "Nombre_Habitants": 221
  },
  {
      "Code_Insee": 29247,
      "Nom": "Saint-\u00c9varzec",
      "Code_Postal": 29170,
      "Densite_Pop": 142.0,
      "Place_Camping_Hotel": 198.0,
      "Nombre_Medecin": 3,
      "Nombre_Intervention": 0.0,
      "Latitude": 47.95,
      "Longitude": -4.01,
      "Nombre_Habitants": 3508
  },
  {
      "Code_Insee": 29248,
      "Nom": "Saint-Fr\u00e9gant",
      "Code_Postal": 29260,
      "Densite_Pop": 103.0,
      "Place_Camping_Hotel": 0.0,
      "Nombre_Medecin": 0,
      "Nombre_Intervention": 0.0,
      "Latitude": 48.6,
      "Longitude": -4.37,
      "Nombre_Habitants": 863
  },
  {
      "Code_Insee": 29249,
      "Nom": "Saint-Goazec",
      "Code_Postal": 29520,
      "Densite_Pop": 21.0,
      "Place_Camping_Hotel": 112.0,
      "Nombre_Medecin": 0,
      "Nombre_Intervention": 0.0,
      "Latitude": 48.15,
      "Longitude": -3.77,
      "Nombre_Habitants": 721
  },
  {
      "Code_Insee": 29250,
      "Nom": "Saint-Hernin",
      "Code_Postal": 29270,
      "Densite_Pop": 25.0,
      "Place_Camping_Hotel": 0.0,
      "Nombre_Medecin": 0,
      "Nombre_Intervention": 0.0,
      "Latitude": 48.21,
      "Longitude": -3.61,
      "Nombre_Habitants": 742
  },
  {
      "Code_Insee": 29251,
      "Nom": "Saint-Jean-du-Doigt",
      "Code_Postal": 29630,
      "Densite_Pop": 34.0,
      "Place_Camping_Hotel": 34.0,
      "Nombre_Medecin": 0,
      "Nombre_Intervention": 0.0,
      "Latitude": 48.67,
      "Longitude": -3.76,
      "Nombre_Habitants": 667
  },
  {
      "Code_Insee": 29252,
      "Nom": "Saint-Jean-Trolimon",
      "Code_Postal": 29120,
      "Densite_Pop": 65.0,
      "Place_Camping_Hotel": 0.0,
      "Nombre_Medecin": 0,
      "Nombre_Intervention": 0.0,
      "Latitude": 47.87,
      "Longitude": -4.31,
      "Nombre_Habitants": 949
  },
  {
      "Code_Insee": 29254,
      "Nom": "Saint-Martin-des-Champs",
      "Code_Postal": 29600,
      "Densite_Pop": 303.0,
      "Place_Camping_Hotel": 120.0,
      "Nombre_Medecin": 6,
      "Nombre_Intervention": 36505.0,
      "Latitude": 48.58,
      "Longitude": -3.86,
      "Nombre_Habitants": 4750
  },
  {
      "Code_Insee": 29255,
      "Nom": "Saint-M\u00e9en",
      "Code_Postal": 29260,
      "Densite_Pop": 80.0,
      "Place_Camping_Hotel": 0.0,
      "Nombre_Medecin": 0,
      "Nombre_Intervention": 0.0,
      "Latitude": 48.56,
      "Longitude": -4.26,
      "Nombre_Habitants": 940
  },
  {
      "Code_Insee": 29256,
      "Nom": "Saint-Nic",
      "Code_Postal": 29550,
      "Densite_Pop": 42.0,
      "Place_Camping_Hotel": 410.0,
      "Nombre_Medecin": 0,
      "Nombre_Intervention": 0.0,
      "Latitude": 48.21,
      "Longitude": -4.28,
      "Nombre_Habitants": 752
  },
  {
      "Code_Insee": 29257,
      "Nom": "Saint-Pabu",
      "Code_Postal": 29830,
      "Densite_Pop": 208.0,
      "Place_Camping_Hotel": 145.0,
      "Nombre_Medecin": 1,
      "Nombre_Intervention": 0.0,
      "Latitude": 48.56,
      "Longitude": -4.62,
      "Nombre_Habitants": 2067
  },
  {
      "Code_Insee": 29259,
      "Nom": "Saint-Pol-de-L\u00e9on",
      "Code_Postal": 29250,
      "Densite_Pop": 288.0,
      "Place_Camping_Hotel": 368.0,
      "Nombre_Medecin": 8,
      "Nombre_Intervention": 39524.0,
      "Latitude": 48.67,
      "Longitude": -3.99,
      "Nombre_Habitants": 6741
  },
  {
      "Code_Insee": 29260,
      "Nom": "Saint-Renan",
      "Code_Postal": 29290,
      "Densite_Pop": 628.0,
      "Place_Camping_Hotel": 22.0,
      "Nombre_Medecin": 7,
      "Nombre_Intervention": 34212.0,
      "Latitude": 48.43,
      "Longitude": -4.62,
      "Nombre_Habitants": 8358
  },
  {
      "Code_Insee": 29261,
      "Nom": "Saint-Rivoal",
      "Code_Postal": 29190,
      "Densite_Pop": 12.0,
      "Place_Camping_Hotel": 0.0,
      "Nombre_Medecin": 0,
      "Nombre_Intervention": 0.0,
      "Latitude": 48.35,
      "Longitude": -3.99,
      "Nombre_Habitants": 217
  },
  {
      "Code_Insee": 29262,
      "Nom": "Saint-Sauveur",
      "Code_Postal": 29400,
      "Densite_Pop": 61.0,
      "Place_Camping_Hotel": 0.0,
      "Nombre_Medecin": 0,
      "Nombre_Intervention": 0.0,
      "Latitude": 48.45,
      "Longitude": -4.0,
      "Nombre_Habitants": 804
  },
  {
      "Code_Insee": 29263,
      "Nom": "Saint-S\u00e9gal",
      "Code_Postal": 29590,
      "Densite_Pop": 70.0,
      "Place_Camping_Hotel": 0.0,
      "Nombre_Medecin": 0,
      "Nombre_Intervention": 0.0,
      "Latitude": 48.24,
      "Longitude": -4.08,
      "Nombre_Habitants": 1140
  },
  {
      "Code_Insee": 29264,
      "Nom": "Saint-Servais",
      "Code_Postal": 29400,
      "Densite_Pop": 77.0,
      "Place_Camping_Hotel": 0.0,
      "Nombre_Medecin": 0,
      "Nombre_Intervention": 0.0,
      "Latitude": 48.52,
      "Longitude": -4.16,
      "Nombre_Habitants": 788
  },
  {
      "Code_Insee": 29265,
      "Nom": "Sainte-S\u00e8ve",
      "Code_Postal": 29600,
      "Densite_Pop": 106.0,
      "Place_Camping_Hotel": 0.0,
      "Nombre_Medecin": 0,
      "Nombre_Intervention": 0.0,
      "Latitude": 48.56,
      "Longitude": -3.89,
      "Nombre_Habitants": 1055
  },
  {
      "Code_Insee": 29266,
      "Nom": "Saint-Th\u00e9gonnec Loc-Eguiner",
      "Code_Postal": 29410,
      "Densite_Pop": 62.0,
      "Place_Camping_Hotel": 18.0,
      "Nombre_Medecin": 1,
      "Nombre_Intervention": 0.0,
      "Latitude": 48.51,
      "Longitude": -3.94,
      "Nombre_Habitants": 3089
  },
  {
      "Code_Insee": 29266,
      "Nom": "Saint-Th\u00e9gonnec Loc-Eguiner",
      "Code_Postal": 29410,
      "Densite_Pop": 62.0,
      "Place_Camping_Hotel": 18.0,
      "Nombre_Medecin": 1,
      "Nombre_Intervention": 0.0,
      "Latitude": 48.51,
      "Longitude": -3.94,
      "Nombre_Habitants": 3089
  },
  {
      "Code_Insee": 29267,
      "Nom": "Saint-Thois",
      "Code_Postal": 29520,
      "Densite_Pop": 40.0,
      "Place_Camping_Hotel": 0.0,
      "Nombre_Medecin": 0,
      "Nombre_Intervention": 0.0,
      "Latitude": 48.15,
      "Longitude": -3.91,
      "Nombre_Habitants": 716
  },
  {
      "Code_Insee": 29268,
      "Nom": "Saint-Thonan",
      "Code_Postal": 29800,
      "Densite_Pop": 171.0,
      "Place_Camping_Hotel": 0.0,
      "Nombre_Medecin": 1,
      "Nombre_Intervention": 0.0,
      "Latitude": 48.48,
      "Longitude": -4.32,
      "Nombre_Habitants": 1929
  },
  {
      "Code_Insee": 29269,
      "Nom": "Saint-Thurien",
      "Code_Postal": 29380,
      "Densite_Pop": 47.0,
      "Place_Camping_Hotel": 0.0,
      "Nombre_Medecin": 0,
      "Nombre_Intervention": 0.0,
      "Latitude": 47.96,
      "Longitude": -3.62,
      "Nombre_Habitants": 1016
  },
  {
      "Code_Insee": 29270,
      "Nom": "Saint-Urbain",
      "Code_Postal": 29800,
      "Densite_Pop": 110.0,
      "Place_Camping_Hotel": 0.0,
      "Nombre_Medecin": 3,
      "Nombre_Intervention": 0.0,
      "Latitude": 48.4,
      "Longitude": -4.22,
      "Nombre_Habitants": 1667
  },
  {
      "Code_Insee": 29271,
      "Nom": "Saint-Vougay",
      "Code_Postal": 29440,
      "Densite_Pop": 58.0,
      "Place_Camping_Hotel": 0.0,
      "Nombre_Medecin": 1,
      "Nombre_Intervention": 0.0,
      "Latitude": 48.59,
      "Longitude": -4.15,
      "Nombre_Habitants": 881
  },
  {
      "Code_Insee": 29272,
      "Nom": "Saint-Yvi",
      "Code_Postal": 29140,
      "Densite_Pop": 123.0,
      "Place_Camping_Hotel": 345.0,
      "Nombre_Medecin": 3,
      "Nombre_Intervention": 0.0,
      "Latitude": 47.96,
      "Longitude": -3.94,
      "Nombre_Habitants": 3339
  },
  {
      "Code_Insee": 29273,
      "Nom": "Santec",
      "Code_Postal": 29250,
      "Densite_Pop": 298.0,
      "Place_Camping_Hotel": 100.0,
      "Nombre_Medecin": 2,
      "Nombre_Intervention": 0.0,
      "Latitude": 48.7,
      "Longitude": -4.03,
      "Nombre_Habitants": 2400
  },
  {
      "Code_Insee": 29274,
      "Nom": "Sca\u00ebr",
      "Code_Postal": 29390,
      "Densite_Pop": 44.0,
      "Place_Camping_Hotel": 74.0,
      "Nombre_Medecin": 2,
      "Nombre_Intervention": 0.0,
      "Latitude": 48.03,
      "Longitude": -3.73,
      "Nombre_Habitants": 5223
  },
  {
      "Code_Insee": 29275,
      "Nom": "Scrignac",
      "Code_Postal": 29640,
      "Densite_Pop": 11.0,
      "Place_Camping_Hotel": 0.0,
      "Nombre_Medecin": 0,
      "Nombre_Intervention": 0.0,
      "Latitude": 48.43,
      "Longitude": -3.67,
      "Nombre_Habitants": 747
  },
  {
      "Code_Insee": 29276,
      "Nom": "Sibiril",
      "Code_Postal": 29250,
      "Densite_Pop": 102.0,
      "Place_Camping_Hotel": 71.0,
      "Nombre_Medecin": 0,
      "Nombre_Intervention": 0.0,
      "Latitude": 48.66,
      "Longitude": -4.07,
      "Nombre_Habitants": 1168
  },
  {
      "Code_Insee": 29277,
      "Nom": "Sizun",
      "Code_Postal": 29450,
      "Densite_Pop": 40.0,
      "Place_Camping_Hotel": 40.0,
      "Nombre_Medecin": 4,
      "Nombre_Intervention": 19217.0,
      "Latitude": 48.39,
      "Longitude": -4.04,
      "Nombre_Habitants": 2319
  },
  {
      "Code_Insee": 29278,
      "Nom": "Sp\u00e9zet",
      "Code_Postal": 29540,
      "Densite_Pop": 29.0,
      "Place_Camping_Hotel": 8.0,
      "Nombre_Medecin": 1,
      "Nombre_Intervention": 0.0,
      "Latitude": 48.19,
      "Longitude": -3.69,
      "Nombre_Habitants": 1748
  },
  {
      "Code_Insee": 29279,
      "Nom": "Taul\u00e9",
      "Code_Postal": 29670,
      "Densite_Pop": 97.0,
      "Place_Camping_Hotel": 12.0,
      "Nombre_Medecin": 0,
      "Nombre_Intervention": 0.0,
      "Latitude": 48.6,
      "Longitude": -3.9,
      "Nombre_Habitants": 2853
  },
  {
      "Code_Insee": 29280,
      "Nom": "Telgruc-sur-Mer",
      "Code_Postal": 29560,
      "Densite_Pop": 75.0,
      "Place_Camping_Hotel": 377.0,
      "Nombre_Medecin": 2,
      "Nombre_Intervention": 0.0,
      "Latitude": 48.23,
      "Longitude": -4.36,
      "Nombre_Habitants": 2124
  },
  {
      "Code_Insee": 29281,
      "Nom": "Tourch",
      "Code_Postal": 29140,
      "Densite_Pop": 51.0,
      "Place_Camping_Hotel": 0.0,
      "Nombre_Medecin": 0,
      "Nombre_Intervention": 0.0,
      "Latitude": 48.03,
      "Longitude": -3.82,
      "Nombre_Habitants": 1007
  },
  {
      "Code_Insee": 29282,
      "Nom": "Tr\u00e9babu",
      "Code_Postal": 29217,
      "Densite_Pop": 83.0,
      "Place_Camping_Hotel": 0.0,
      "Nombre_Medecin": 0,
      "Nombre_Intervention": 0.0,
      "Latitude": 48.37,
      "Longitude": -4.73,
      "Nombre_Habitants": 361
  },
  {
      "Code_Insee": 29284,
      "Nom": "Treffiagat",
      "Code_Postal": 29730,
      "Densite_Pop": 299.0,
      "Place_Camping_Hotel": 181.0,
      "Nombre_Medecin": 1,
      "Nombre_Intervention": 0.0,
      "Latitude": 47.8,
      "Longitude": -4.26,
      "Nombre_Habitants": 2424
  },
  {
      "Code_Insee": 29285,
      "Nom": "Tr\u00e9flaou\u00e9nan",
      "Code_Postal": 29440,
      "Densite_Pop": 64.0,
      "Place_Camping_Hotel": 0.0,
      "Nombre_Medecin": 0,
      "Nombre_Intervention": 0.0,
      "Latitude": 48.63,
      "Longitude": -4.1,
      "Nombre_Habitants": 521
  },
  {
      "Code_Insee": 29286,
      "Nom": "Tr\u00e9fl\u00e9v\u00e9nez",
      "Code_Postal": 29800,
      "Densite_Pop": 25.0,
      "Place_Camping_Hotel": 0.0,
      "Nombre_Medecin": 0,
      "Nombre_Intervention": 0.0,
      "Latitude": 48.41,
      "Longitude": -4.18,
      "Nombre_Habitants": 241
  },
  {
      "Code_Insee": 29287,
      "Nom": "Tr\u00e9flez",
      "Code_Postal": 29430,
      "Densite_Pop": 62.0,
      "Place_Camping_Hotel": 189.0,
      "Nombre_Medecin": 0,
      "Nombre_Intervention": 0.0,
      "Latitude": 48.63,
      "Longitude": -4.26,
      "Nombre_Habitants": 977
  },
  {
      "Code_Insee": 29288,
      "Nom": "Tr\u00e9garantec",
      "Code_Postal": 29260,
      "Densite_Pop": 119.0,
      "Place_Camping_Hotel": 0.0,
      "Nombre_Medecin": 0,
      "Nombre_Intervention": 0.0,
      "Latitude": 48.55,
      "Longitude": -4.29,
      "Nombre_Habitants": 622
  },
  {
      "Code_Insee": 29289,
      "Nom": "Tr\u00e9garvan",
      "Code_Postal": 29560,
      "Densite_Pop": 12.0,
      "Place_Camping_Hotel": 0.0,
      "Nombre_Medecin": 0,
      "Nombre_Intervention": 0.0,
      "Latitude": 48.24,
      "Longitude": -4.23,
      "Nombre_Habitants": 119
  },
  {
      "Code_Insee": 29290,
      "Nom": "Tr\u00e9glonou",
      "Code_Postal": 29870,
      "Densite_Pop": 114.0,
      "Place_Camping_Hotel": 0.0,
      "Nombre_Medecin": 0,
      "Nombre_Intervention": 0.0,
      "Latitude": 48.55,
      "Longitude": -4.55,
      "Nombre_Habitants": 691
  },
  {
      "Code_Insee": 29291,
      "Nom": "Tr\u00e9gourez",
      "Code_Postal": 29970,
      "Densite_Pop": 54.0,
      "Place_Camping_Hotel": 0.0,
      "Nombre_Medecin": 1,
      "Nombre_Intervention": 0.0,
      "Latitude": 48.11,
      "Longitude": -3.87,
      "Nombre_Habitants": 957
  },
  {
      "Code_Insee": 29292,
      "Nom": "Tr\u00e9guennec",
      "Code_Postal": 29720,
      "Densite_Pop": 33.0,
      "Place_Camping_Hotel": 115.0,
      "Nombre_Medecin": 0,
      "Nombre_Intervention": 0.0,
      "Latitude": 47.88,
      "Longitude": -4.34,
      "Nombre_Habitants": 313
  },
  {
      "Code_Insee": 29293,
      "Nom": "Tr\u00e9gunc",
      "Code_Postal": 29910,
      "Densite_Pop": 139.0,
      "Place_Camping_Hotel": 1093.0,
      "Nombre_Medecin": 8,
      "Nombre_Intervention": 33546.0,
      "Latitude": 47.84,
      "Longitude": -3.84,
      "Nombre_Habitants": 7050
  },
  {
      "Code_Insee": 29294,
      "Nom": "Le Tr\u00e9hou",
      "Code_Postal": 29450,
      "Densite_Pop": 28.0,
      "Place_Camping_Hotel": 0.0,
      "Nombre_Medecin": 0,
      "Nombre_Intervention": 0.0,
      "Latitude": 48.39,
      "Longitude": -4.13,
      "Nombre_Habitants": 640
  },
  {
      "Code_Insee": 29295,
      "Nom": "Tr\u00e9maou\u00e9zan",
      "Code_Postal": 29800,
      "Densite_Pop": 60.0,
      "Place_Camping_Hotel": 0.0,
      "Nombre_Medecin": 0,
      "Nombre_Intervention": 0.0,
      "Latitude": 48.51,
      "Longitude": -4.26,
      "Nombre_Habitants": 502
  },
  {
      "Code_Insee": 29296,
      "Nom": "Tr\u00e9m\u00e9oc",
      "Code_Postal": 29120,
      "Densite_Pop": 125.0,
      "Place_Camping_Hotel": 0.0,
      "Nombre_Medecin": 0,
      "Nombre_Intervention": 0.0,
      "Latitude": 47.91,
      "Longitude": -4.22,
      "Nombre_Habitants": 1453
  },
  {
      "Code_Insee": 29297,
      "Nom": "Tr\u00e9m\u00e9ven",
      "Code_Postal": 29300,
      "Densite_Pop": 153.0,
      "Place_Camping_Hotel": 0.0,
      "Nombre_Medecin": 0,
      "Nombre_Intervention": 0.0,
      "Latitude": 47.9,
      "Longitude": -3.53,
      "Nombre_Habitants": 2353
  },
  {
      "Code_Insee": 29298,
      "Nom": "Tr\u00e9ogat",
      "Code_Postal": 29720,
      "Densite_Pop": 59.0,
      "Place_Camping_Hotel": 0.0,
      "Nombre_Medecin": 0,
      "Nombre_Intervention": 0.0,
      "Latitude": 47.91,
      "Longitude": -4.34,
      "Nombre_Habitants": 578
  },
  {
      "Code_Insee": 29299,
      "Nom": "Tr\u00e9ouergat",
      "Code_Postal": 29290,
      "Densite_Pop": 54.0,
      "Place_Camping_Hotel": 0.0,
      "Nombre_Medecin": 0,
      "Nombre_Intervention": 0.0,
      "Latitude": 48.5,
      "Longitude": -4.6,
      "Nombre_Habitants": 327
  },
  {
      "Code_Insee": 29300,
      "Nom": "Le Tr\u00e9voux",
      "Code_Postal": 29380,
      "Densite_Pop": 77.0,
      "Place_Camping_Hotel": 0.0,
      "Nombre_Medecin": 0,
      "Nombre_Intervention": 0.0,
      "Latitude": 47.89,
      "Longitude": -3.66,
      "Nombre_Habitants": 1609
  },
  {
      "Code_Insee": 29301,
      "Nom": "Tr\u00e9zilid\u00e9",
      "Code_Postal": 29440,
      "Densite_Pop": 87.0,
      "Place_Camping_Hotel": 0.0,
      "Nombre_Medecin": 0,
      "Nombre_Intervention": 0.0,
      "Latitude": 48.61,
      "Longitude": -4.08,
      "Nombre_Habitants": 402
  },
  {
      "Code_Insee": 29302,
      "Nom": "Pont-de-Buis-l\u00e8s-Quimerch",
      "Code_Postal": 29590,
      "Densite_Pop": 87.0,
      "Place_Camping_Hotel": 9.0,
      "Nombre_Medecin": 3,
      "Nombre_Intervention": 0.0,
      "Latitude": 48.28,
      "Longitude": -4.11,
      "Nombre_Habitants": 3595
  },
  {
      "Code_Insee": 29302,
      "Nom": "Pont-de-Buis-l\u00e8s-Quimerch",
      "Code_Postal": 29590,
      "Densite_Pop": 87.0,
      "Place_Camping_Hotel": 9.0,
      "Nombre_Medecin": 3,
      "Nombre_Intervention": 0.0,
      "Latitude": 48.28,
      "Longitude": -4.11,
      "Nombre_Habitants": 3595
  }
]